City,Country,Procedure,Clinic Name,Address,Phone,Email,Website,Price Range (USD),Notes,Certifications
Bangkok,Thailand,Dental Implant,Bangkok International Dental Hospital (BIDH),"98 Sukhumvit Soi 2, Khlong Toei, Bangkok 10110","+66 2-115-8977, +66 95-517-1587",contact@dentalhospitalthailand.com,https://dentalhospitalthailand.com,"$1,500 - $2,000","98% success rate, ISO & JCI accredited",JCI Accredited
Bangkok,Thailand,Dental Implant,BFC Dental Clinic - Bangna,"347 Bangna-Trad Road, Bangkok 10260","02-396-1075, 093-581-0701",contact@bfcdental.com,https://www.bfcdental.com,"$900 - $1,500","4,600+ implants/year, in-house lab, JCI re-accredited 2023",JCI Accredited
Bangkok,Thailand,Dental Implant,SmileBox Dental Clinic - Thonglor,"1223 Sukhumvit Road, Watthana, Bangkok 10110",094 975 9666,,https://smileboxclinic.com,"$900 - $1,500","VR therapy for stress relief, Invisalign Platinum provider, Sha Plus+ Certified",Sha Plus+ Certified
Bangkok,Thailand,Dental Implant,Bangkok International Dental Center (BIDC),"157,159 Ratchadaphisek Rd Soi 7, Ding Daeng, Bangkok 10400","+66 (2) 692 4433, 02 245 0055",contact@bangkokdentalcenter.com,https://bangkokdentalcenter.com,"$900 - $1,500","First JCI-accredited dental center in Thailand, near MRT station",JCI Accredited
Bangkok,Thailand,Dental Implant,About Tooth Dental Clinic - Siam,"8th Floor SIAMSCAPE, Siam Square 1, Pathum Wan, Bangkok 10330",+6687-555-4665,,https://www.abouttoothdental.com,"$900 - $1,500","Two convenient locations, Daily 10:30 AM - 8:30 PM",
Istanbul,Turkey,LASIK,Kudret Eye Istanbul,"Sarayardı Street No: 3, Acibadem Kadikoy, Istanbul","+90 541 457 50 15, +90 444 4 544",info@kudretgozistanbul.com,https://www.kudretgozistanbul.com,"€1,390 - €1,590 (both eyes)","TÜV Rheinland & ISO9001 certified, Carl ZEISS Center of Excellence","TÜV Rheinland, ISO9001"
Almaty,Kazakhstan,Dental Veneers (Full Mouth),Almaty Dental Center,"Almaty, Kazakhstan",,,,,Specializing in dental procedures,
Almaty,Kazakhstan,Dental Implant,Almaty Dental Center,"Almaty, Kazakhstan",,,,,Specializing in dental procedures,
Almaty,Kazakhstan,Knee Replacement,Almaty Orthopedic Hospital,"Almaty, Kazakhstan",,,,,Specializing in orthopedic procedures,
Almaty,Kazakhstan,Hip Replacement,Almaty Orthopedic Hospital,"Almaty, Kazakhstan",,,,,Specializing in orthopedic procedures,
Almaty,Kazakhstan,Colonoscopy,Almaty Medical Diagnostic Center,"Almaty, Kazakhstan",,,,,Specializing in diagnostics procedures,
Almaty,Kazakhstan,Gastric Bypass,Almaty Bariatric Surgery Center,"Almaty, Kazakhstan",,,,,Specializing in bariatric procedures,
Almaty,Kazakhstan,Rhinoplasty,Almaty Aesthetic Surgery Center,"Almaty, Kazakhstan",,,,,Specializing in cosmetic procedures,
Almaty,Kazakhstan,Breast Augmentation,Almaty Aesthetic Surgery Center,"Almaty, Kazakhstan",,,,,Specializing in cosmetic procedures,
Almaty,Kazakhstan,LASIK,Almaty Eye Center,"Almaty, Kazakhstan",,,,,Specializing in eye procedures,
Almaty,Kazakhstan,Hair Transplant (3000 grafts),Almaty Hair Restoration Clinic,"Almaty, Kazakhstan",,,,,Specializing in hair procedures,
Almaty,Kazakhstan,IVF (Fertility Treatment),Almaty Fertility Center,"Almaty, Kazakhstan",,,,,Specializing in fertility procedures,
Amsterdam,Netherlands,Dental Veneers (Full Mouth),Amsterdam Dental Center,"Amsterdam, Netherlands",,,,,Specializing in dental procedures,
Amsterdam,Netherlands,Dental Implant,Amsterdam Dental Center,"Amsterdam, Netherlands",,,,,Specializing in dental procedures,
Amsterdam,Netherlands,Knee Replacement,Amsterdam Orthopedic Hospital,"Amsterdam, Netherlands",,,,,Specializing in orthopedic procedures,
Amsterdam,Netherlands,Hip Replacement,Amsterdam Orthopedic Hospital,"Amsterdam, Netherlands",,,,,Specializing in orthopedic procedures,
Amsterdam,Netherlands,Colonoscopy,Amsterdam Medical Diagnostic Center,"Amsterdam, Netherlands",,,,,Specializing in diagnostics procedures,
Amsterdam,Netherlands,Gastric Bypass,Amsterdam Bariatric Surgery Center,"Amsterdam, Netherlands",,,,,Specializing in bariatric procedures,
Amsterdam,Netherlands,Rhinoplasty,Amsterdam Aesthetic Surgery Center,"Amsterdam, Netherlands",,,,,Specializing in cosmetic procedures,
Amsterdam,Netherlands,Breast Augmentation,Amsterdam Aesthetic Surgery Center,"Amsterdam, Netherlands",,,,,Specializing in cosmetic procedures,
Amsterdam,Netherlands,LASIK,Amsterdam Eye Center,"Amsterdam, Netherlands",,,,,Specializing in eye procedures,
Amsterdam,Netherlands,Hair Transplant (3000 grafts),Amsterdam Hair Restoration Clinic,"Amsterdam, Netherlands",,,,,Specializing in hair procedures,
Amsterdam,Netherlands,IVF (Fertility Treatment),Amsterdam Fertility Center,"Amsterdam, Netherlands",,,,,Specializing in fertility procedures,
Athens,Greece,Dental Veneers (Full Mouth),Athens Dental Center,"Athens, Greece",,,,,Specializing in dental procedures,
Athens,Greece,Dental Implant,Athens Dental Center,"Athens, Greece",,,,,Specializing in dental procedures,
Athens,Greece,Knee Replacement,Athens Orthopedic Hospital,"Athens, Greece",,,,,Specializing in orthopedic procedures,
Athens,Greece,Hip Replacement,Athens Orthopedic Hospital,"Athens, Greece",,,,,Specializing in orthopedic procedures,
Athens,Greece,Colonoscopy,Athens Medical Diagnostic Center,"Athens, Greece",,,,,Specializing in diagnostics procedures,
Athens,Greece,Gastric Bypass,Athens Bariatric Surgery Center,"Athens, Greece",,,,,Specializing in bariatric procedures,
Athens,Greece,Rhinoplasty,Athens Aesthetic Surgery Center,"Athens, Greece",,,,,Specializing in cosmetic procedures,
Athens,Greece,Breast Augmentation,Athens Aesthetic Surgery Center,"Athens, Greece",,,,,Specializing in cosmetic procedures,
Athens,Greece,LASIK,Athens Eye Center,"Athens, Greece",,,,,Specializing in eye procedures,
Athens,Greece,Hair Transplant (3000 grafts),Athens Hair Restoration Clinic,"Athens, Greece",,,,,Specializing in hair procedures,
Athens,Greece,IVF (Fertility Treatment),Athens Fertility Center,"Athens, Greece",,,,,Specializing in fertility procedures,
Austin,USA,Dental Veneers (Full Mouth),Austin Dental Center,"Austin, USA",,,,,Specializing in dental procedures,
Austin,USA,Dental Implant,Austin Dental Center,"Austin, USA",,,,,Specializing in dental procedures,
Austin,USA,Knee Replacement,Austin Orthopedic Hospital,"Austin, USA",,,,,Specializing in orthopedic procedures,
Austin,USA,Hip Replacement,Austin Orthopedic Hospital,"Austin, USA",,,,,Specializing in orthopedic procedures,
Austin,USA,Colonoscopy,Austin Medical Diagnostic Center,"Austin, USA",,,,,Specializing in diagnostics procedures,
Austin,USA,Gastric Bypass,Austin Bariatric Surgery Center,"Austin, USA",,,,,Specializing in bariatric procedures,
Austin,USA,Rhinoplasty,Austin Aesthetic Surgery Center,"Austin, USA",,,,,Specializing in cosmetic procedures,
Austin,USA,Breast Augmentation,Austin Aesthetic Surgery Center,"Austin, USA",,,,,Specializing in cosmetic procedures,
Austin,USA,LASIK,Austin Eye Center,"Austin, USA",,,,,Specializing in eye procedures,
Austin,USA,Hair Transplant (3000 grafts),Austin Hair Restoration Clinic,"Austin, USA",,,,,Specializing in hair procedures,
Austin,USA,IVF (Fertility Treatment),Austin Fertility Center,"Austin, USA",,,,,Specializing in fertility procedures,
Bali,Indonesia,Gastric Bypass,Bali Bariatric Surgery Center,"Bali, Indonesia",,,,,Specializing in bariatric procedures,
Bali,Indonesia,Hip Replacement,Bali Orthopedic Hospital,"Bali, Indonesia",,,,,Specializing in orthopedic procedures,
Bali,Indonesia,Knee Replacement,Bali Orthopedic Hospital,"Bali, Indonesia",,,,,Specializing in orthopedic procedures,
Bali,Indonesia,LASIK,Bali Eye Center,"Bali, Indonesia",,,,,Specializing in eye procedures,
Bali,Indonesia,Breast Augmentation,Bali Aesthetic Surgery Center,"Bali, Indonesia",,,,,Specializing in cosmetic procedures,
Bali,Indonesia,Facelift,Bali Aesthetic Surgery Center,"Bali, Indonesia",,,,,Specializing in cosmetic procedures,
Bali,Indonesia,NAD+ IV Injection,Bali Regenerative Medicine Center,"Bali, Indonesia",,,,,Specializing in regenerative procedures,
Bali,Indonesia,PRP Therapy,Bali Regenerative Medicine Center,"Bali, Indonesia",,,,,Specializing in regenerative procedures,
Bali,Indonesia,Colonoscopy,Bali Medical Diagnostic Center,"Bali, Indonesia",,,,,Specializing in diagnostics procedures,
Bali,Indonesia,Dental Implant,Bali Dental Center,"Bali, Indonesia",,,,,Specializing in dental procedures,
Bali,Indonesia,Dental Veneers (Full Mouth),Bali Dental Center,"Bali, Indonesia",,,,,Specializing in dental procedures,
Bali,Indonesia,IVF (Fertility Treatment),Bali Fertility Center,"Bali, Indonesia",,,,,Specializing in fertility procedures,
Bali,Indonesia,Hair Transplant (3000 grafts),Bali Hair Restoration Clinic,"Bali, Indonesia",,,,,Specializing in hair procedures,
Barcelona,Spain,Dental Veneers (Full Mouth),Barcelona Dental Center,"Barcelona, Spain",,,,,Specializing in dental procedures,
Barcelona,Spain,Dental Implant,Barcelona Dental Center,"Barcelona, Spain",,,,,Specializing in dental procedures,
Barcelona,Spain,Knee Replacement,Barcelona Orthopedic Hospital,"Barcelona, Spain",,,,,Specializing in orthopedic procedures,
Barcelona,Spain,Hip Replacement,Barcelona Orthopedic Hospital,"Barcelona, Spain",,,,,Specializing in orthopedic procedures,
Barcelona,Spain,Colonoscopy,Barcelona Medical Diagnostic Center,"Barcelona, Spain",,,,,Specializing in diagnostics procedures,
Barcelona,Spain,Gastric Bypass,Barcelona Bariatric Surgery Center,"Barcelona, Spain",,,,,Specializing in bariatric procedures,
Barcelona,Spain,Rhinoplasty,Barcelona Aesthetic Surgery Center,"Barcelona, Spain",,,,,Specializing in cosmetic procedures,
Barcelona,Spain,Breast Augmentation,Barcelona Aesthetic Surgery Center,"Barcelona, Spain",,,,,Specializing in cosmetic procedures,
Barcelona,Spain,LASIK,Barcelona Eye Center,"Barcelona, Spain",,,,,Specializing in eye procedures,
Barcelona,Spain,Hair Transplant (3000 grafts),Barcelona Hair Restoration Clinic,"Barcelona, Spain",,,,,Specializing in hair procedures,
Barcelona,Spain,IVF (Fertility Treatment),Barcelona Fertility Center,"Barcelona, Spain",,,,,Specializing in fertility procedures,
Belgrade,Serbia,Gender Reassignment Surgery,Belgrade Gender Affirmation Center,"Belgrade, Serbia",,,,,Specializing in gender procedures,
Berlin,Germany,Dental Veneers (Full Mouth),Berlin Dental Center,"Berlin, Germany",,,,,Specializing in dental procedures,
Berlin,Germany,Dental Implant,Berlin Dental Center,"Berlin, Germany",,,,,Specializing in dental procedures,
Berlin,Germany,Knee Replacement,Berlin Orthopedic Hospital,"Berlin, Germany",,,,,Specializing in orthopedic procedures,
Berlin,Germany,Hip Replacement,Berlin Orthopedic Hospital,"Berlin, Germany",,,,,Specializing in orthopedic procedures,
Berlin,Germany,Colonoscopy,Berlin Medical Diagnostic Center,"Berlin, Germany",,,,,Specializing in diagnostics procedures,
Berlin,Germany,Gastric Bypass,Berlin Bariatric Surgery Center,"Berlin, Germany",,,,,Specializing in bariatric procedures,
Berlin,Germany,Rhinoplasty,Berlin Aesthetic Surgery Center,"Berlin, Germany",,,,,Specializing in cosmetic procedures,
Berlin,Germany,Breast Augmentation,Berlin Aesthetic Surgery Center,"Berlin, Germany",,,,,Specializing in cosmetic procedures,
Berlin,Germany,LASIK,Berlin Eye Center,"Berlin, Germany",,,,,Specializing in eye procedures,
Berlin,Germany,Hair Transplant (3000 grafts),Berlin Hair Restoration Clinic,"Berlin, Germany",,,,,Specializing in hair procedures,
Berlin,Germany,IVF (Fertility Treatment),Berlin Fertility Center,"Berlin, Germany",,,,,Specializing in fertility procedures,
Bodrum,Turkey,Dental Veneers (Full Mouth),Bodrum Dental Center,"Bodrum, Turkey",,,,,Specializing in dental procedures,
Bodrum,Turkey,Dental Implant,Bodrum Dental Center,"Bodrum, Turkey",,,,,Specializing in dental procedures,
Bogota,Colombia,Testosterone Replacement Therapy (TRT),Bogota Hormone Therapy Clinic,"Bogota, Colombia",,,,,Specializing in hormone procedures,
Bogotá,Colombia,Dental Veneers (Full Mouth),Bogotá Dental Center,"Bogotá, Colombia",,,,,Specializing in dental procedures,
Bogotá,Colombia,Dental Implant,Bogotá Dental Center,"Bogotá, Colombia",,,,,Specializing in dental procedures,
Bogotá,Colombia,Knee Replacement,Bogotá Orthopedic Hospital,"Bogotá, Colombia",,,,,Specializing in orthopedic procedures,
Bogotá,Colombia,Hip Replacement,Bogotá Orthopedic Hospital,"Bogotá, Colombia",,,,,Specializing in orthopedic procedures,
Bogotá,Colombia,Colonoscopy,Bogotá Medical Diagnostic Center,"Bogotá, Colombia",,,,,Specializing in diagnostics procedures,
Bogotá,Colombia,Gastric Bypass,Bogotá Bariatric Surgery Center,"Bogotá, Colombia",,,,,Specializing in bariatric procedures,
Bogotá,Colombia,Rhinoplasty,Bogotá Aesthetic Surgery Center,"Bogotá, Colombia",,,,,Specializing in cosmetic procedures,
Bogotá,Colombia,Breast Augmentation,Bogotá Aesthetic Surgery Center,"Bogotá, Colombia",,,,,Specializing in cosmetic procedures,
Bogotá,Colombia,LASIK,Bogotá Eye Center,"Bogotá, Colombia",,,,,Specializing in eye procedures,
Bogotá,Colombia,Stem Cell Therapy,Bogotá Regenerative Medicine Center,"Bogotá, Colombia",,,,,Specializing in regenerative procedures,
Bogotá,Colombia,Hair Transplant (3000 grafts),Bogotá Hair Restoration Clinic,"Bogotá, Colombia",,,,,Specializing in hair procedures,
Bogotá,Colombia,IVF (Fertility Treatment),Bogotá Fertility Center,"Bogotá, Colombia",,,,,Specializing in fertility procedures,
Bratislava,Slovakia,Dental Veneers (Full Mouth),Bratislava Dental Center,"Bratislava, Slovakia",,,,,Specializing in dental procedures,
Bratislava,Slovakia,Dental Implant,Bratislava Dental Center,"Bratislava, Slovakia",,,,,Specializing in dental procedures,
Bratislava,Slovakia,Knee Replacement,Bratislava Orthopedic Hospital,"Bratislava, Slovakia",,,,,Specializing in orthopedic procedures,
Bratislava,Slovakia,Hip Replacement,Bratislava Orthopedic Hospital,"Bratislava, Slovakia",,,,,Specializing in orthopedic procedures,
Bratislava,Slovakia,Colonoscopy,Bratislava Medical Diagnostic Center,"Bratislava, Slovakia",,,,,Specializing in diagnostics procedures,
Bratislava,Slovakia,Gastric Bypass,Bratislava Bariatric Surgery Center,"Bratislava, Slovakia",,,,,Specializing in bariatric procedures,
Bratislava,Slovakia,Rhinoplasty,Bratislava Aesthetic Surgery Center,"Bratislava, Slovakia",,,,,Specializing in cosmetic procedures,
Bratislava,Slovakia,Breast Augmentation,Bratislava Aesthetic Surgery Center,"Bratislava, Slovakia",,,,,Specializing in cosmetic procedures,
Bratislava,Slovakia,LASIK,Bratislava Eye Center,"Bratislava, Slovakia",,,,,Specializing in eye procedures,
Bratislava,Slovakia,Hair Transplant (3000 grafts),Bratislava Hair Restoration Clinic,"Bratislava, Slovakia",,,,,Specializing in hair procedures,
Bratislava,Slovakia,IVF (Fertility Treatment),Bratislava Fertility Center,"Bratislava, Slovakia",,,,,Specializing in fertility procedures,
Brussels,Belgium,Dental Veneers (Full Mouth),Brussels Dental Center,"Brussels, Belgium",,,,,Specializing in dental procedures,
Brussels,Belgium,Dental Implant,Brussels Dental Center,"Brussels, Belgium",,,,,Specializing in dental procedures,
Brussels,Belgium,Knee Replacement,Brussels Orthopedic Hospital,"Brussels, Belgium",,,,,Specializing in orthopedic procedures,
Brussels,Belgium,Hip Replacement,Brussels Orthopedic Hospital,"Brussels, Belgium",,,,,Specializing in orthopedic procedures,
Brussels,Belgium,Colonoscopy,Brussels Medical Diagnostic Center,"Brussels, Belgium",,,,,Specializing in diagnostics procedures,
Brussels,Belgium,Gastric Bypass,Brussels Bariatric Surgery Center,"Brussels, Belgium",,,,,Specializing in bariatric procedures,
Brussels,Belgium,Rhinoplasty,Brussels Aesthetic Surgery Center,"Brussels, Belgium",,,,,Specializing in cosmetic procedures,
Brussels,Belgium,Breast Augmentation,Brussels Aesthetic Surgery Center,"Brussels, Belgium",,,,,Specializing in cosmetic procedures,
Brussels,Belgium,LASIK,Brussels Eye Center,"Brussels, Belgium",,,,,Specializing in eye procedures,
Brussels,Belgium,Hair Transplant (3000 grafts),Brussels Hair Restoration Clinic,"Brussels, Belgium",,,,,Specializing in hair procedures,
Brussels,Belgium,IVF (Fertility Treatment),Brussels Fertility Center,"Brussels, Belgium",,,,,Specializing in fertility procedures,
Bucharest,Romania,Dental Veneers (Full Mouth),Bucharest Dental Center,"Bucharest, Romania",,,,,Specializing in dental procedures,
Bucharest,Romania,Dental Implant,Bucharest Dental Center,"Bucharest, Romania",,,,,Specializing in dental procedures,
Bucharest,Romania,Knee Replacement,Bucharest Orthopedic Hospital,"Bucharest, Romania",,,,,Specializing in orthopedic procedures,
Bucharest,Romania,Hip Replacement,Bucharest Orthopedic Hospital,"Bucharest, Romania",,,,,Specializing in orthopedic procedures,
Bucharest,Romania,Colonoscopy,Bucharest Medical Diagnostic Center,"Bucharest, Romania",,,,,Specializing in diagnostics procedures,
Bucharest,Romania,Gastric Bypass,Bucharest Bariatric Surgery Center,"Bucharest, Romania",,,,,Specializing in bariatric procedures,
Bucharest,Romania,Rhinoplasty,Bucharest Aesthetic Surgery Center,"Bucharest, Romania",,,,,Specializing in cosmetic procedures,
Bucharest,Romania,Breast Augmentation,Bucharest Aesthetic Surgery Center,"Bucharest, Romania",,,,,Specializing in cosmetic procedures,
Bucharest,Romania,LASIK,Bucharest Eye Center,"Bucharest, Romania",,,,,Specializing in eye procedures,
Bucharest,Romania,Hair Transplant (3000 grafts),Bucharest Hair Restoration Clinic,"Bucharest, Romania",,,,,Specializing in hair procedures,
Bucharest,Romania,IVF (Fertility Treatment),Bucharest Fertility Center,"Bucharest, Romania",,,,,Specializing in fertility procedures,
Budapest,Hungary,Dental Veneers (Full Mouth),Budapest Dental Center,"Budapest, Hungary",,,,,Specializing in dental procedures,
Budapest,Hungary,Dental Implant,Budapest Dental Center,"Budapest, Hungary",,,,,Specializing in dental procedures,
Budapest,Hungary,Knee Replacement,Budapest Orthopedic Hospital,"Budapest, Hungary",,,,,Specializing in orthopedic procedures,
Budapest,Hungary,Hip Replacement,Budapest Orthopedic Hospital,"Budapest, Hungary",,,,,Specializing in orthopedic procedures,
Budapest,Hungary,Colonoscopy,Budapest Medical Diagnostic Center,"Budapest, Hungary",,,,,Specializing in diagnostics procedures,
Budapest,Hungary,Gastric Bypass,Budapest Bariatric Surgery Center,"Budapest, Hungary",,,,,Specializing in bariatric procedures,
Budapest,Hungary,Testosterone Replacement Therapy (TRT),Budapest Hormone Therapy Clinic,"Budapest, Hungary",,,,,Specializing in hormone procedures,
Budapest,Hungary,Rhinoplasty,Budapest Aesthetic Surgery Center,"Budapest, Hungary",,,,,Specializing in cosmetic procedures,
Budapest,Hungary,Breast Augmentation,Budapest Aesthetic Surgery Center,"Budapest, Hungary",,,,,Specializing in cosmetic procedures,
Budapest,Hungary,LASIK,Budapest Eye Center,"Budapest, Hungary",,,,,Specializing in eye procedures,
Budapest,Hungary,Hair Transplant (3000 grafts),Budapest Hair Restoration Clinic,"Budapest, Hungary",,,,,Specializing in hair procedures,
Budapest,Hungary,IVF (Fertility Treatment),Budapest Fertility Center,"Budapest, Hungary",,,,,Specializing in fertility procedures,
Buenos Aires,Argentina,Dental Veneers (Full Mouth),Buenos Aires Dental Center,"Buenos Aires, Argentina",,,,,Specializing in dental procedures,
Buenos Aires,Argentina,Dental Implant,Buenos Aires Dental Center,"Buenos Aires, Argentina",,,,,Specializing in dental procedures,
Buenos Aires,Argentina,Knee Replacement,Buenos Aires Orthopedic Hospital,"Buenos Aires, Argentina",,,,,Specializing in orthopedic procedures,
Buenos Aires,Argentina,Hip Replacement,Buenos Aires Orthopedic Hospital,"Buenos Aires, Argentina",,,,,Specializing in orthopedic procedures,
Buenos Aires,Argentina,Colonoscopy,Buenos Aires Medical Diagnostic Center,"Buenos Aires, Argentina",,,,,Specializing in diagnostics procedures,
Buenos Aires,Argentina,Gastric Bypass,Buenos Aires Bariatric Surgery Center,"Buenos Aires, Argentina",,,,,Specializing in bariatric procedures,
Buenos Aires,Argentina,Rhinoplasty,Buenos Aires Aesthetic Surgery Center,"Buenos Aires, Argentina",,,,,Specializing in cosmetic procedures,
Buenos Aires,Argentina,Breast Augmentation,Buenos Aires Aesthetic Surgery Center,"Buenos Aires, Argentina",,,,,Specializing in cosmetic procedures,
Buenos Aires,Argentina,LASIK,Buenos Aires Eye Center,"Buenos Aires, Argentina",,,,,Specializing in eye procedures,
Buenos Aires,Argentina,Hair Transplant (3000 grafts),Buenos Aires Hair Restoration Clinic,"Buenos Aires, Argentina",,,,,Specializing in hair procedures,
Buenos Aires,Argentina,IVF (Fertility Treatment),Buenos Aires Fertility Center,"Buenos Aires, Argentina",,,,,Specializing in fertility procedures,
Cairo,Egypt,Dental Veneers (Full Mouth),Cairo Dental Center,"Cairo, Egypt",,,,,Specializing in dental procedures,
Cairo,Egypt,Dental Implant,Cairo Dental Center,"Cairo, Egypt",,,,,Specializing in dental procedures,
Cairo,Egypt,Knee Replacement,Cairo Orthopedic Hospital,"Cairo, Egypt",,,,,Specializing in orthopedic procedures,
Cairo,Egypt,Hip Replacement,Cairo Orthopedic Hospital,"Cairo, Egypt",,,,,Specializing in orthopedic procedures,
Cairo,Egypt,Colonoscopy,Cairo Medical Diagnostic Center,"Cairo, Egypt",,,,,Specializing in diagnostics procedures,
Cairo,Egypt,Gastric Bypass,Cairo Bariatric Surgery Center,"Cairo, Egypt",,,,,Specializing in bariatric procedures,
Cairo,Egypt,Rhinoplasty,Cairo Aesthetic Surgery Center,"Cairo, Egypt",,,,,Specializing in cosmetic procedures,
Cairo,Egypt,Botox,Cairo Aesthetic Surgery Center,"Cairo, Egypt",,,,,Specializing in cosmetic procedures,
Cairo,Egypt,LASIK,Cairo Eye Center,"Cairo, Egypt",,,,,Specializing in eye procedures,
Cairo,Egypt,Hair Transplant (3000 grafts),Cairo Hair Restoration Clinic,"Cairo, Egypt",,,,,Specializing in hair procedures,
Cairo,Egypt,IVF (Fertility Treatment),Cairo Fertility Center,"Cairo, Egypt",,,,,Specializing in fertility procedures,
Calgary,Canada,Dental Veneers (Full Mouth),Calgary Dental Center,"Calgary, Canada",,,,,Specializing in dental procedures,
Calgary,Canada,Dental Implant,Calgary Dental Center,"Calgary, Canada",,,,,Specializing in dental procedures,
Calgary,Canada,Knee Replacement,Calgary Orthopedic Hospital,"Calgary, Canada",,,,,Specializing in orthopedic procedures,
Calgary,Canada,Hip Replacement,Calgary Orthopedic Hospital,"Calgary, Canada",,,,,Specializing in orthopedic procedures,
Calgary,Canada,Colonoscopy,Calgary Medical Diagnostic Center,"Calgary, Canada",,,,,Specializing in diagnostics procedures,
Calgary,Canada,Gastric Bypass,Calgary Bariatric Surgery Center,"Calgary, Canada",,,,,Specializing in bariatric procedures,
Calgary,Canada,Rhinoplasty,Calgary Aesthetic Surgery Center,"Calgary, Canada",,,,,Specializing in cosmetic procedures,
Calgary,Canada,Botox,Calgary Aesthetic Surgery Center,"Calgary, Canada",,,,,Specializing in cosmetic procedures,
Calgary,Canada,LASIK,Calgary Eye Center,"Calgary, Canada",,,,,Specializing in eye procedures,
Calgary,Canada,Hair Transplant (3000 grafts),Calgary Hair Restoration Clinic,"Calgary, Canada",,,,,Specializing in hair procedures,
Calgary,Canada,IVF (Fertility Treatment),Calgary Fertility Center,"Calgary, Canada",,,,,Specializing in fertility procedures,
Cancun,Mexico,Dental Veneers (Full Mouth),Cancun Dental Center,"Cancun, Mexico",,,,,Specializing in dental procedures,
Cancun,Mexico,Dental Implant,Cancun Dental Center,"Cancun, Mexico",,,,,Specializing in dental procedures,
Cancun,Mexico,Knee Replacement,Cancun Orthopedic Hospital,"Cancun, Mexico",,,,,Specializing in orthopedic procedures,
Cancun,Mexico,Hip Replacement,Cancun Orthopedic Hospital,"Cancun, Mexico",,,,,Specializing in orthopedic procedures,
Cancun,Mexico,Colonoscopy,Cancun Medical Diagnostic Center,"Cancun, Mexico",,,,,Specializing in diagnostics procedures,
Cancun,Mexico,Gastric Bypass,Cancun Bariatric Surgery Center,"Cancun, Mexico",,,,,Specializing in bariatric procedures,
Cancun,Mexico,Rhinoplasty,Cancun Aesthetic Surgery Center,"Cancun, Mexico",,,,,Specializing in cosmetic procedures,
Cancun,Mexico,Botox,Cancun Aesthetic Surgery Center,"Cancun, Mexico",,,,,Specializing in cosmetic procedures,
Cancun,Mexico,LASIK,Cancun Eye Center,"Cancun, Mexico",,,,,Specializing in eye procedures,
Cancun,Mexico,Hair Transplant (3000 grafts),Cancun Hair Restoration Clinic,"Cancun, Mexico",,,,,Specializing in hair procedures,
Cancun,Mexico,IVF (Fertility Treatment),Cancun Fertility Center,"Cancun, Mexico",,,,,Specializing in fertility procedures,
Cape Town,South Africa,Dental Veneers (Full Mouth),Cape Town Dental Center,"Cape Town, South Africa",,,,,Specializing in dental procedures,
Cape Town,South Africa,Dental Implant,Cape Town Dental Center,"Cape Town, South Africa",,,,,Specializing in dental procedures,
Cape Town,South Africa,Knee Replacement,Cape Town Orthopedic Hospital,"Cape Town, South Africa",,,,,Specializing in orthopedic procedures,
Cape Town,South Africa,Hip Replacement,Cape Town Orthopedic Hospital,"Cape Town, South Africa",,,,,Specializing in orthopedic procedures,
Cape Town,South Africa,Colonoscopy,Cape Town Medical Diagnostic Center,"Cape Town, South Africa",,,,,Specializing in diagnostics procedures,
Cape Town,South Africa,Gastric Bypass,Cape Town Bariatric Surgery Center,"Cape Town, South Africa",,,,,Specializing in bariatric procedures,
Cape Town,South Africa,Rhinoplasty,Cape Town Aesthetic Surgery Center,"Cape Town, South Africa",,,,,Specializing in cosmetic procedures,
Cape Town,South Africa,Botox,Cape Town Aesthetic Surgery Center,"Cape Town, South Africa",,,,,Specializing in cosmetic procedures,
Cape Town,South Africa,LASIK,Cape Town Eye Center,"Cape Town, South Africa",,,,,Specializing in eye procedures,
Cape Town,South Africa,Hair Transplant (3000 grafts),Cape Town Hair Restoration Clinic,"Cape Town, South Africa",,,,,Specializing in hair procedures,
Cape Town,South Africa,IVF (Fertility Treatment),Cape Town Fertility Center,"Cape Town, South Africa",,,,,Specializing in fertility procedures,
Chicago,USA,Dental Veneers (Full Mouth),Chicago Dental Center,"Chicago, USA",,,,,Specializing in dental procedures,
Chicago,USA,Dental Implant,Chicago Dental Center,"Chicago, USA",,,,,Specializing in dental procedures,
Chicago,USA,Knee Replacement,Chicago Orthopedic Hospital,"Chicago, USA",,,,,Specializing in orthopedic procedures,
Chicago,USA,Hip Replacement,Chicago Orthopedic Hospital,"Chicago, USA",,,,,Specializing in orthopedic procedures,
Chicago,USA,Colonoscopy,Chicago Medical Diagnostic Center,"Chicago, USA",,,,,Specializing in diagnostics procedures,
Chicago,USA,Gastric Bypass,Chicago Bariatric Surgery Center,"Chicago, USA",,,,,Specializing in bariatric procedures,
Chicago,USA,Rhinoplasty,Chicago Aesthetic Surgery Center,"Chicago, USA",,,,,Specializing in cosmetic procedures,
Chicago,USA,Breast Augmentation,Chicago Aesthetic Surgery Center,"Chicago, USA",,,,,Specializing in cosmetic procedures,
Chicago,USA,LASIK,Chicago Eye Center,"Chicago, USA",,,,,Specializing in eye procedures,
Chicago,USA,Hair Transplant (3000 grafts),Chicago Hair Restoration Clinic,"Chicago, USA",,,,,Specializing in hair procedures,
Chicago,USA,IVF (Fertility Treatment),Chicago Fertility Center,"Chicago, USA",,,,,Specializing in fertility procedures,
Copenhagen,Denmark,Dental Veneers (Full Mouth),Copenhagen Dental Center,"Copenhagen, Denmark",,,,,Specializing in dental procedures,
Copenhagen,Denmark,Dental Implant,Copenhagen Dental Center,"Copenhagen, Denmark",,,,,Specializing in dental procedures,
Copenhagen,Denmark,Knee Replacement,Copenhagen Orthopedic Hospital,"Copenhagen, Denmark",,,,,Specializing in orthopedic procedures,
Copenhagen,Denmark,Hip Replacement,Copenhagen Orthopedic Hospital,"Copenhagen, Denmark",,,,,Specializing in orthopedic procedures,
Copenhagen,Denmark,Colonoscopy,Copenhagen Medical Diagnostic Center,"Copenhagen, Denmark",,,,,Specializing in diagnostics procedures,
Copenhagen,Denmark,Gastric Bypass,Copenhagen Bariatric Surgery Center,"Copenhagen, Denmark",,,,,Specializing in bariatric procedures,
Copenhagen,Denmark,Rhinoplasty,Copenhagen Aesthetic Surgery Center,"Copenhagen, Denmark",,,,,Specializing in cosmetic procedures,
Copenhagen,Denmark,Breast Augmentation,Copenhagen Aesthetic Surgery Center,"Copenhagen, Denmark",,,,,Specializing in cosmetic procedures,
Copenhagen,Denmark,LASIK,Copenhagen Eye Center,"Copenhagen, Denmark",,,,,Specializing in eye procedures,
Copenhagen,Denmark,Hair Transplant (3000 grafts),Copenhagen Hair Restoration Clinic,"Copenhagen, Denmark",,,,,Specializing in hair procedures,
Copenhagen,Denmark,IVF (Fertility Treatment),Copenhagen Fertility Center,"Copenhagen, Denmark",,,,,Specializing in fertility procedures,
Dallas,USA,Dental Veneers (Full Mouth),Dallas Dental Center,"Dallas, USA",,,,,Specializing in dental procedures,
Dallas,USA,Dental Implant,Dallas Dental Center,"Dallas, USA",,,,,Specializing in dental procedures,
Dallas,USA,Knee Replacement,Dallas Orthopedic Hospital,"Dallas, USA",,,,,Specializing in orthopedic procedures,
Dallas,USA,Hip Replacement,Dallas Orthopedic Hospital,"Dallas, USA",,,,,Specializing in orthopedic procedures,
Dallas,USA,Colonoscopy,Dallas Medical Diagnostic Center,"Dallas, USA",,,,,Specializing in diagnostics procedures,
Dallas,USA,Gastric Bypass,Dallas Bariatric Surgery Center,"Dallas, USA",,,,,Specializing in bariatric procedures,
Dallas,USA,Rhinoplasty,Dallas Aesthetic Surgery Center,"Dallas, USA",,,,,Specializing in cosmetic procedures,
Dallas,USA,Breast Augmentation,Dallas Aesthetic Surgery Center,"Dallas, USA",,,,,Specializing in cosmetic procedures,
Dallas,USA,LASIK,Dallas Eye Center,"Dallas, USA",,,,,Specializing in eye procedures,
Dallas,USA,Hair Transplant (3000 grafts),Dallas Hair Restoration Clinic,"Dallas, USA",,,,,Specializing in hair procedures,
Dallas,USA,IVF (Fertility Treatment),Dallas Fertility Center,"Dallas, USA",,,,,Specializing in fertility procedures,
Delhi,India,Human Growth Hormone (HGH),Delhi Hormone Therapy Clinic,"Delhi, India",,,,,Specializing in hormone procedures,
Delhi,India,Testosterone Replacement Therapy (TRT),Delhi Hormone Therapy Clinic,"Delhi, India",,,,,Specializing in hormone procedures,
Delhi,India,Gender Reassignment Surgery,Delhi Gender Affirmation Center,"Delhi, India",,,,,Specializing in gender procedures,
Delhi,India,Gastric Bypass,Delhi Bariatric Surgery Center,"Delhi, India",,,,,Specializing in bariatric procedures,
Delhi,India,Hip Replacement,Delhi Orthopedic Hospital,"Delhi, India",,,,,Specializing in orthopedic procedures,
Delhi,India,Limb Lengthening Surgery,Delhi Orthopedic Hospital,"Delhi, India",,,,,Specializing in orthopedic procedures,
Delhi,India,LASIK,Delhi Eye Center,"Delhi, India",,,,,Specializing in eye procedures,
Delhi,India,Breast Augmentation,Delhi Aesthetic Surgery Center,"Delhi, India",,,,,Specializing in cosmetic procedures,
Delhi,India,Facelift,Delhi Aesthetic Surgery Center,"Delhi, India",,,,,Specializing in cosmetic procedures,
Delhi,India,NAD+ IV Injection,Delhi Regenerative Medicine Center,"Delhi, India",,,,,Specializing in regenerative procedures,
Delhi,India,Peptide Therapy,Delhi Regenerative Medicine Center,"Delhi, India",,,,,Specializing in regenerative procedures,
Delhi,India,Colonoscopy,Delhi Medical Diagnostic Center,"Delhi, India",,,,,Specializing in diagnostics procedures,
Delhi,India,Dental Implant,Delhi Dental Center,"Delhi, India",,,,,Specializing in dental procedures,
Delhi,India,Dental Veneers (Full Mouth),Delhi Dental Center,"Delhi, India",,,,,Specializing in dental procedures,
Delhi,India,IVF (Fertility Treatment),Delhi Fertility Center,"Delhi, India",,,,,Specializing in fertility procedures,
Delhi,India,Hair Transplant (3000 grafts),Delhi Hair Restoration Clinic,"Delhi, India",,,,,Specializing in hair procedures,
Dubai,UAE,Human Growth Hormone (HGH),Dubai Hormone Therapy Clinic,"Dubai, UAE",,,,,Specializing in hormone procedures,
Dubai,UAE,Testosterone Replacement Therapy (TRT),Dubai Hormone Therapy Clinic,"Dubai, UAE",,,,,Specializing in hormone procedures,
Dubai,UAE,Gastric Bypass,Dubai Bariatric Surgery Center,"Dubai, UAE",,,,,Specializing in bariatric procedures,
Dubai,UAE,Hip Replacement,Dubai Orthopedic Hospital,"Dubai, UAE",,,,,Specializing in orthopedic procedures,
Dubai,UAE,Knee Replacement,Dubai Orthopedic Hospital,"Dubai, UAE",,,,,Specializing in orthopedic procedures,
Dubai,UAE,LASIK,Dubai Eye Center,"Dubai, UAE",,,,,Specializing in eye procedures,
Dubai,UAE,Breast Augmentation,Dubai Aesthetic Surgery Center,"Dubai, UAE",,,,,Specializing in cosmetic procedures,
Dubai,UAE,Facelift,Dubai Aesthetic Surgery Center,"Dubai, UAE",,,,,Specializing in cosmetic procedures,
Dubai,UAE,Biochip Implantation,Dubai Regenerative Medicine Center,"Dubai, UAE",,,,,Specializing in regenerative procedures,
Dubai,UAE,NAD+ IV Injection,Dubai Regenerative Medicine Center,"Dubai, UAE",,,,,Specializing in regenerative procedures,
Dubai,UAE,Colonoscopy,Dubai Medical Diagnostic Center,"Dubai, UAE",,,,,Specializing in diagnostics procedures,
Dubai,UAE,Advanced Health Screening,Dubai Medical Diagnostic Center,"Dubai, UAE",,,,,Specializing in diagnostics procedures,
Dubai,UAE,Dental Implant,Dubai Dental Center,"Dubai, UAE",,,,,Specializing in dental procedures,
Dubai,UAE,Dental Veneers (Full Mouth),Dubai Dental Center,"Dubai, UAE",,,,,Specializing in dental procedures,
Dubai,UAE,IVF (Fertility Treatment),Dubai Fertility Center,"Dubai, UAE",,,,,Specializing in fertility procedures,
Dubai,UAE,Hair Transplant (3000 grafts),Dubai Hair Restoration Clinic,"Dubai, UAE",,,,,Specializing in hair procedures,
Dublin,Ireland,Dental Veneers (Full Mouth),Dublin Dental Center,"Dublin, Ireland",,,,,Specializing in dental procedures,
Dublin,Ireland,Dental Implant,Dublin Dental Center,"Dublin, Ireland",,,,,Specializing in dental procedures,
Dublin,Ireland,Knee Replacement,Dublin Orthopedic Hospital,"Dublin, Ireland",,,,,Specializing in orthopedic procedures,
Dublin,Ireland,Hip Replacement,Dublin Orthopedic Hospital,"Dublin, Ireland",,,,,Specializing in orthopedic procedures,
Dublin,Ireland,Colonoscopy,Dublin Medical Diagnostic Center,"Dublin, Ireland",,,,,Specializing in diagnostics procedures,
Dublin,Ireland,Gastric Bypass,Dublin Bariatric Surgery Center,"Dublin, Ireland",,,,,Specializing in bariatric procedures,
Dublin,Ireland,Rhinoplasty,Dublin Aesthetic Surgery Center,"Dublin, Ireland",,,,,Specializing in cosmetic procedures,
Dublin,Ireland,Breast Augmentation,Dublin Aesthetic Surgery Center,"Dublin, Ireland",,,,,Specializing in cosmetic procedures,
Dublin,Ireland,LASIK,Dublin Eye Center,"Dublin, Ireland",,,,,Specializing in eye procedures,
Dublin,Ireland,Hair Transplant (3000 grafts),Dublin Hair Restoration Clinic,"Dublin, Ireland",,,,,Specializing in hair procedures,
Dublin,Ireland,IVF (Fertility Treatment),Dublin Fertility Center,"Dublin, Ireland",,,,,Specializing in fertility procedures,
Helsinki,Finland,Dental Veneers (Full Mouth),Helsinki Dental Center,"Helsinki, Finland",,,,,Specializing in dental procedures,
Helsinki,Finland,Dental Implant,Helsinki Dental Center,"Helsinki, Finland",,,,,Specializing in dental procedures,
Helsinki,Finland,Knee Replacement,Helsinki Orthopedic Hospital,"Helsinki, Finland",,,,,Specializing in orthopedic procedures,
Helsinki,Finland,Hip Replacement,Helsinki Orthopedic Hospital,"Helsinki, Finland",,,,,Specializing in orthopedic procedures,
Helsinki,Finland,Colonoscopy,Helsinki Medical Diagnostic Center,"Helsinki, Finland",,,,,Specializing in diagnostics procedures,
Helsinki,Finland,Gastric Bypass,Helsinki Bariatric Surgery Center,"Helsinki, Finland",,,,,Specializing in bariatric procedures,
Helsinki,Finland,Rhinoplasty,Helsinki Aesthetic Surgery Center,"Helsinki, Finland",,,,,Specializing in cosmetic procedures,
Helsinki,Finland,Breast Augmentation,Helsinki Aesthetic Surgery Center,"Helsinki, Finland",,,,,Specializing in cosmetic procedures,
Helsinki,Finland,LASIK,Helsinki Eye Center,"Helsinki, Finland",,,,,Specializing in eye procedures,
Helsinki,Finland,Hair Transplant (3000 grafts),Helsinki Hair Restoration Clinic,"Helsinki, Finland",,,,,Specializing in hair procedures,
Helsinki,Finland,IVF (Fertility Treatment),Helsinki Fertility Center,"Helsinki, Finland",,,,,Specializing in fertility procedures,
Ho Chi Minh City,Vietnam,Gastric Bypass,Ho Chi Minh City Bariatric Surgery Center,"Ho Chi Minh City, Vietnam",,,,,Specializing in bariatric procedures,
Ho Chi Minh City,Vietnam,Hip Replacement,Ho Chi Minh City Orthopedic Hospital,"Ho Chi Minh City, Vietnam",,,,,Specializing in orthopedic procedures,
Ho Chi Minh City,Vietnam,Knee Replacement,Ho Chi Minh City Orthopedic Hospital,"Ho Chi Minh City, Vietnam",,,,,Specializing in orthopedic procedures,
Ho Chi Minh City,Vietnam,LASIK,Ho Chi Minh City Eye Center,"Ho Chi Minh City, Vietnam",,,,,Specializing in eye procedures,
Ho Chi Minh City,Vietnam,Breast Augmentation,Ho Chi Minh City Aesthetic Surgery Center,"Ho Chi Minh City, Vietnam",,,,,Specializing in cosmetic procedures,
Ho Chi Minh City,Vietnam,Facelift,Ho Chi Minh City Aesthetic Surgery Center,"Ho Chi Minh City, Vietnam",,,,,Specializing in cosmetic procedures,
Ho Chi Minh City,Vietnam,NAD+ IV Injection,Ho Chi Minh City Regenerative Medicine Center,"Ho Chi Minh City, Vietnam",,,,,Specializing in regenerative procedures,
Ho Chi Minh City,Vietnam,PRP Therapy,Ho Chi Minh City Regenerative Medicine Center,"Ho Chi Minh City, Vietnam",,,,,Specializing in regenerative procedures,
Ho Chi Minh City,Vietnam,Colonoscopy,Ho Chi Minh City Medical Diagnostic Center,"Ho Chi Minh City, Vietnam",,,,,Specializing in diagnostics procedures,
Ho Chi Minh City,Vietnam,Dental Implant,Ho Chi Minh City Dental Center,"Ho Chi Minh City, Vietnam",,,,,Specializing in dental procedures,
Ho Chi Minh City,Vietnam,Dental Veneers (Full Mouth),Ho Chi Minh City Dental Center,"Ho Chi Minh City, Vietnam",,,,,Specializing in dental procedures,
Ho Chi Minh City,Vietnam,IVF (Fertility Treatment),Ho Chi Minh City Fertility Center,"Ho Chi Minh City, Vietnam",,,,,Specializing in fertility procedures,
Ho Chi Minh City,Vietnam,Hair Transplant (3000 grafts),Ho Chi Minh City Hair Restoration Clinic,"Ho Chi Minh City, Vietnam",,,,,Specializing in hair procedures,
Hong Kong,China,Gastric Bypass,Hong Kong Bariatric Surgery Center,"Hong Kong, China",,,,,Specializing in bariatric procedures,
Hong Kong,China,Hip Replacement,Hong Kong Orthopedic Hospital,"Hong Kong, China",,,,,Specializing in orthopedic procedures,
Hong Kong,China,Knee Replacement,Hong Kong Orthopedic Hospital,"Hong Kong, China",,,,,Specializing in orthopedic procedures,
Hong Kong,China,LASIK,Hong Kong Eye Center,"Hong Kong, China",,,,,Specializing in eye procedures,
Hong Kong,China,Breast Augmentation,Hong Kong Aesthetic Surgery Center,"Hong Kong, China",,,,,Specializing in cosmetic procedures,
Hong Kong,China,Facelift,Hong Kong Aesthetic Surgery Center,"Hong Kong, China",,,,,Specializing in cosmetic procedures,
Hong Kong,China,Biochip Implantation,Hong Kong Regenerative Medicine Center,"Hong Kong, China",,,,,Specializing in regenerative procedures,
Hong Kong,China,Peptide Therapy,Hong Kong Regenerative Medicine Center,"Hong Kong, China",,,,,Specializing in regenerative procedures,
Hong Kong,China,Colonoscopy,Hong Kong Medical Diagnostic Center,"Hong Kong, China",,,,,Specializing in diagnostics procedures,
Hong Kong,China,Advanced Health Screening,Hong Kong Medical Diagnostic Center,"Hong Kong, China",,,,,Specializing in diagnostics procedures,
Hong Kong,China,Dental Implant,Hong Kong Dental Center,"Hong Kong, China",,,,,Specializing in dental procedures,
Hong Kong,China,Dental Veneers (Full Mouth),Hong Kong Dental Center,"Hong Kong, China",,,,,Specializing in dental procedures,
Hong Kong,China,IVF (Fertility Treatment),Hong Kong Fertility Center,"Hong Kong, China",,,,,Specializing in fertility procedures,
Hong Kong,China,Hair Transplant (3000 grafts),Hong Kong Hair Restoration Clinic,"Hong Kong, China",,,,,Specializing in hair procedures,
Houston,USA,Dental Veneers (Full Mouth),Houston Dental Center,"Houston, USA",,,,,Specializing in dental procedures,
Houston,USA,Dental Implant,Houston Dental Center,"Houston, USA",,,,,Specializing in dental procedures,
Houston,USA,Knee Replacement,Houston Orthopedic Hospital,"Houston, USA",,,,,Specializing in orthopedic procedures,
Houston,USA,Hip Replacement,Houston Orthopedic Hospital,"Houston, USA",,,,,Specializing in orthopedic procedures,
Houston,USA,Colonoscopy,Houston Medical Diagnostic Center,"Houston, USA",,,,,Specializing in diagnostics procedures,
Houston,USA,Gastric Bypass,Houston Bariatric Surgery Center,"Houston, USA",,,,,Specializing in bariatric procedures,
Houston,USA,Rhinoplasty,Houston Aesthetic Surgery Center,"Houston, USA",,,,,Specializing in cosmetic procedures,
Houston,USA,Breast Augmentation,Houston Aesthetic Surgery Center,"Houston, USA",,,,,Specializing in cosmetic procedures,
Houston,USA,LASIK,Houston Eye Center,"Houston, USA",,,,,Specializing in eye procedures,
Houston,USA,Hair Transplant (3000 grafts),Houston Hair Restoration Clinic,"Houston, USA",,,,,Specializing in hair procedures,
Houston,USA,IVF (Fertility Treatment),Houston Fertility Center,"Houston, USA",,,,,Specializing in fertility procedures,
Jacksonville,USA,Dental Veneers (Full Mouth),Jacksonville Dental Center,"Jacksonville, USA",,,,,Specializing in dental procedures,
Jacksonville,USA,Dental Implant,Jacksonville Dental Center,"Jacksonville, USA",,,,,Specializing in dental procedures,
Jacksonville,USA,Knee Replacement,Jacksonville Orthopedic Hospital,"Jacksonville, USA",,,,,Specializing in orthopedic procedures,
Jacksonville,USA,Hip Replacement,Jacksonville Orthopedic Hospital,"Jacksonville, USA",,,,,Specializing in orthopedic procedures,
Jacksonville,USA,Colonoscopy,Jacksonville Medical Diagnostic Center,"Jacksonville, USA",,,,,Specializing in diagnostics procedures,
Jacksonville,USA,Gastric Bypass,Jacksonville Bariatric Surgery Center,"Jacksonville, USA",,,,,Specializing in bariatric procedures,
Jacksonville,USA,Rhinoplasty,Jacksonville Aesthetic Surgery Center,"Jacksonville, USA",,,,,Specializing in cosmetic procedures,
Jacksonville,USA,Breast Augmentation,Jacksonville Aesthetic Surgery Center,"Jacksonville, USA",,,,,Specializing in cosmetic procedures,
Jacksonville,USA,LASIK,Jacksonville Eye Center,"Jacksonville, USA",,,,,Specializing in eye procedures,
Jacksonville,USA,Hair Transplant (3000 grafts),Jacksonville Hair Restoration Clinic,"Jacksonville, USA",,,,,Specializing in hair procedures,
Jacksonville,USA,IVF (Fertility Treatment),Jacksonville Fertility Center,"Jacksonville, USA",,,,,Specializing in fertility procedures,
Jakarta,Indonesia,Gastric Bypass,Jakarta Bariatric Surgery Center,"Jakarta, Indonesia",,,,,Specializing in bariatric procedures,
Jakarta,Indonesia,Hip Replacement,Jakarta Orthopedic Hospital,"Jakarta, Indonesia",,,,,Specializing in orthopedic procedures,
Jakarta,Indonesia,Knee Replacement,Jakarta Orthopedic Hospital,"Jakarta, Indonesia",,,,,Specializing in orthopedic procedures,
Jakarta,Indonesia,LASIK,Jakarta Eye Center,"Jakarta, Indonesia",,,,,Specializing in eye procedures,
Jakarta,Indonesia,Breast Augmentation,Jakarta Aesthetic Surgery Center,"Jakarta, Indonesia",,,,,Specializing in cosmetic procedures,
Jakarta,Indonesia,Facelift,Jakarta Aesthetic Surgery Center,"Jakarta, Indonesia",,,,,Specializing in cosmetic procedures,
Jakarta,Indonesia,NAD+ IV Injection,Jakarta Regenerative Medicine Center,"Jakarta, Indonesia",,,,,Specializing in regenerative procedures,
Jakarta,Indonesia,Hyperbaric Oxygen Therapy (HBOT),Jakarta Regenerative Medicine Center,"Jakarta, Indonesia",,,,,Specializing in regenerative procedures,
Jakarta,Indonesia,Colonoscopy,Jakarta Medical Diagnostic Center,"Jakarta, Indonesia",,,,,Specializing in diagnostics procedures,
Jakarta,Indonesia,Dental Implant,Jakarta Dental Center,"Jakarta, Indonesia",,,,,Specializing in dental procedures,
Jakarta,Indonesia,Dental Veneers (Full Mouth),Jakarta Dental Center,"Jakarta, Indonesia",,,,,Specializing in dental procedures,
Jakarta,Indonesia,IVF (Fertility Treatment),Jakarta Fertility Center,"Jakarta, Indonesia",,,,,Specializing in fertility procedures,
Jakarta,Indonesia,Hair Transplant (3000 grafts),Jakarta Hair Restoration Clinic,"Jakarta, Indonesia",,,,,Specializing in hair procedures,
Kuala Lumpur,Malaysia,Human Growth Hormone (HGH),Kuala Lumpur Hormone Therapy Clinic,"Kuala Lumpur, Malaysia",,,,,Specializing in hormone procedures,
Kuala Lumpur,Malaysia,Testosterone Replacement Therapy (TRT),Kuala Lumpur Hormone Therapy Clinic,"Kuala Lumpur, Malaysia",,,,,Specializing in hormone procedures,
Kuala Lumpur,Malaysia,Gastric Bypass,Kuala Lumpur Bariatric Surgery Center,"Kuala Lumpur, Malaysia",,,,,Specializing in bariatric procedures,
Kuala Lumpur,Malaysia,Hip Replacement,Kuala Lumpur Orthopedic Hospital,"Kuala Lumpur, Malaysia",,,,,Specializing in orthopedic procedures,
Kuala Lumpur,Malaysia,Knee Replacement,Kuala Lumpur Orthopedic Hospital,"Kuala Lumpur, Malaysia",,,,,Specializing in orthopedic procedures,
Kuala Lumpur,Malaysia,LASIK,Kuala Lumpur Eye Center,"Kuala Lumpur, Malaysia",,,,,Specializing in eye procedures,
Kuala Lumpur,Malaysia,Breast Augmentation,Kuala Lumpur Aesthetic Surgery Center,"Kuala Lumpur, Malaysia",,,,,Specializing in cosmetic procedures,
Kuala Lumpur,Malaysia,Facelift,Kuala Lumpur Aesthetic Surgery Center,"Kuala Lumpur, Malaysia",,,,,Specializing in cosmetic procedures,
Kuala Lumpur,Malaysia,NAD+ IV Injection,Kuala Lumpur Regenerative Medicine Center,"Kuala Lumpur, Malaysia",,,,,Specializing in regenerative procedures,
Kuala Lumpur,Malaysia,Peptide Therapy,Kuala Lumpur Regenerative Medicine Center,"Kuala Lumpur, Malaysia",,,,,Specializing in regenerative procedures,
Kuala Lumpur,Malaysia,Colonoscopy,Kuala Lumpur Medical Diagnostic Center,"Kuala Lumpur, Malaysia",,,,,Specializing in diagnostics procedures,
Kuala Lumpur,Malaysia,Advanced Health Screening,Kuala Lumpur Medical Diagnostic Center,"Kuala Lumpur, Malaysia",,,,,Specializing in diagnostics procedures,
Kuala Lumpur,Malaysia,Dental Implant,Kuala Lumpur Dental Center,"Kuala Lumpur, Malaysia",,,,,Specializing in dental procedures,
Kuala Lumpur,Malaysia,Dental Veneers (Full Mouth),Kuala Lumpur Dental Center,"Kuala Lumpur, Malaysia",,,,,Specializing in dental procedures,
Kuala Lumpur,Malaysia,IVF (Fertility Treatment),Kuala Lumpur Fertility Center,"Kuala Lumpur, Malaysia",,,,,Specializing in fertility procedures,
Kuala Lumpur,Malaysia,Hair Transplant (3000 grafts),Kuala Lumpur Hair Restoration Clinic,"Kuala Lumpur, Malaysia",,,,,Specializing in hair procedures,
Lisbon,Portugal,Dental Veneers (Full Mouth),Lisbon Dental Center,"Lisbon, Portugal",,,,,Specializing in dental procedures,
Lisbon,Portugal,Dental Implant,Lisbon Dental Center,"Lisbon, Portugal",,,,,Specializing in dental procedures,
Lisbon,Portugal,Knee Replacement,Lisbon Orthopedic Hospital,"Lisbon, Portugal",,,,,Specializing in orthopedic procedures,
Lisbon,Portugal,Hip Replacement,Lisbon Orthopedic Hospital,"Lisbon, Portugal",,,,,Specializing in orthopedic procedures,
Lisbon,Portugal,Colonoscopy,Lisbon Medical Diagnostic Center,"Lisbon, Portugal",,,,,Specializing in diagnostics procedures,
Lisbon,Portugal,Gastric Bypass,Lisbon Bariatric Surgery Center,"Lisbon, Portugal",,,,,Specializing in bariatric procedures,
Lisbon,Portugal,Rhinoplasty,Lisbon Aesthetic Surgery Center,"Lisbon, Portugal",,,,,Specializing in cosmetic procedures,
Lisbon,Portugal,Breast Augmentation,Lisbon Aesthetic Surgery Center,"Lisbon, Portugal",,,,,Specializing in cosmetic procedures,
Lisbon,Portugal,LASIK,Lisbon Eye Center,"Lisbon, Portugal",,,,,Specializing in eye procedures,
Lisbon,Portugal,Hair Transplant (3000 grafts),Lisbon Hair Restoration Clinic,"Lisbon, Portugal",,,,,Specializing in hair procedures,
Lisbon,Portugal,IVF (Fertility Treatment),Lisbon Fertility Center,"Lisbon, Portugal",,,,,Specializing in fertility procedures,
Ljubljana,Slovenia,Dental Veneers (Full Mouth),Ljubljana Dental Center,"Ljubljana, Slovenia",,,,,Specializing in dental procedures,
Ljubljana,Slovenia,Dental Implant,Ljubljana Dental Center,"Ljubljana, Slovenia",,,,,Specializing in dental procedures,
Ljubljana,Slovenia,Knee Replacement,Ljubljana Orthopedic Hospital,"Ljubljana, Slovenia",,,,,Specializing in orthopedic procedures,
Ljubljana,Slovenia,Hip Replacement,Ljubljana Orthopedic Hospital,"Ljubljana, Slovenia",,,,,Specializing in orthopedic procedures,
Ljubljana,Slovenia,Colonoscopy,Ljubljana Medical Diagnostic Center,"Ljubljana, Slovenia",,,,,Specializing in diagnostics procedures,
Ljubljana,Slovenia,Gastric Bypass,Ljubljana Bariatric Surgery Center,"Ljubljana, Slovenia",,,,,Specializing in bariatric procedures,
Ljubljana,Slovenia,Rhinoplasty,Ljubljana Aesthetic Surgery Center,"Ljubljana, Slovenia",,,,,Specializing in cosmetic procedures,
Ljubljana,Slovenia,Breast Augmentation,Ljubljana Aesthetic Surgery Center,"Ljubljana, Slovenia",,,,,Specializing in cosmetic procedures,
Ljubljana,Slovenia,LASIK,Ljubljana Eye Center,"Ljubljana, Slovenia",,,,,Specializing in eye procedures,
Ljubljana,Slovenia,Hair Transplant (3000 grafts),Ljubljana Hair Restoration Clinic,"Ljubljana, Slovenia",,,,,Specializing in hair procedures,
Ljubljana,Slovenia,IVF (Fertility Treatment),Ljubljana Fertility Center,"Ljubljana, Slovenia",,,,,Specializing in fertility procedures,
London,UK,Human Growth Hormone (HGH),London Hormone Therapy Clinic,"London, UK",,,,,Specializing in hormone procedures,
London,UK,Testosterone Replacement Therapy (TRT),London Hormone Therapy Clinic,"London, UK",,,,,Specializing in hormone procedures,
London,UK,Gender Reassignment Surgery,London Gender Affirmation Center,"London, UK",,,,,Specializing in gender procedures,
London,UK,Gastric Bypass,London Bariatric Surgery Center,"London, UK",,,,,Specializing in bariatric procedures,
London,UK,Hip Replacement,London Orthopedic Hospital,"London, UK",,,,,Specializing in orthopedic procedures,
London,UK,Limb Lengthening Surgery,London Orthopedic Hospital,"London, UK",,,,,Specializing in orthopedic procedures,
London,UK,LASIK,London Eye Center,"London, UK",,,,,Specializing in eye procedures,
London,UK,Breast Augmentation,London Aesthetic Surgery Center,"London, UK",,,,,Specializing in cosmetic procedures,
London,UK,Facelift,London Aesthetic Surgery Center,"London, UK",,,,,Specializing in cosmetic procedures,
London,UK,Colonoscopy,London Medical Diagnostic Center,"London, UK",,,,,Specializing in diagnostics procedures,
London,UK,Dental Implant,London Dental Center,"London, UK",,,,,Specializing in dental procedures,
London,UK,Dental Veneers (Full Mouth),London Dental Center,"London, UK",,,,,Specializing in dental procedures,
London,UK,IVF (Fertility Treatment),London Fertility Center,"London, UK",,,,,Specializing in fertility procedures,
London,UK,Hair Transplant (3000 grafts),London Hair Restoration Clinic,"London, UK",,,,,Specializing in hair procedures,
Los Angeles,USA,Human Growth Hormone (HGH),Los Angeles Hormone Therapy Clinic,"Los Angeles, USA",,,,,Specializing in hormone procedures,
Los Angeles,USA,Testosterone Replacement Therapy (TRT),Los Angeles Hormone Therapy Clinic,"Los Angeles, USA",,,,,Specializing in hormone procedures,
Los Angeles,USA,Gender Reassignment Surgery,Los Angeles Gender Affirmation Center,"Los Angeles, USA",,,,,Specializing in gender procedures,
Los Angeles,USA,Gastric Bypass,Los Angeles Bariatric Surgery Center,"Los Angeles, USA",,,,,Specializing in bariatric procedures,
Los Angeles,USA,Hip Replacement,Los Angeles Orthopedic Hospital,"Los Angeles, USA",,,,,Specializing in orthopedic procedures,
Los Angeles,USA,Limb Lengthening Surgery,Los Angeles Orthopedic Hospital,"Los Angeles, USA",,,,,Specializing in orthopedic procedures,
Los Angeles,USA,LASIK,Los Angeles Eye Center,"Los Angeles, USA",,,,,Specializing in eye procedures,
Los Angeles,USA,Breast Augmentation,Los Angeles Aesthetic Surgery Center,"Los Angeles, USA",,,,,Specializing in cosmetic procedures,
Los Angeles,USA,Facelift,Los Angeles Aesthetic Surgery Center,"Los Angeles, USA",,,,,Specializing in cosmetic procedures,
Los Angeles,USA,Colonoscopy,Los Angeles Medical Diagnostic Center,"Los Angeles, USA",,,,,Specializing in diagnostics procedures,
Los Angeles,USA,Dental Implant,Los Angeles Dental Center,"Los Angeles, USA",,,,,Specializing in dental procedures,
Los Angeles,USA,Dental Veneers (Full Mouth),Los Angeles Dental Center,"Los Angeles, USA",,,,,Specializing in dental procedures,
Los Angeles,USA,IVF (Fertility Treatment),Los Angeles Fertility Center,"Los Angeles, USA",,,,,Specializing in fertility procedures,
Los Angeles,USA,Hair Transplant (3000 grafts),Los Angeles Hair Restoration Clinic,"Los Angeles, USA",,,,,Specializing in hair procedures,
Luxembourg,Luxembourg,Dental Veneers (Full Mouth),Luxembourg Dental Center,"Luxembourg, Luxembourg",,,,,Specializing in dental procedures,
Luxembourg,Luxembourg,Dental Implant,Luxembourg Dental Center,"Luxembourg, Luxembourg",,,,,Specializing in dental procedures,
Luxembourg,Luxembourg,Knee Replacement,Luxembourg Orthopedic Hospital,"Luxembourg, Luxembourg",,,,,Specializing in orthopedic procedures,
Luxembourg,Luxembourg,Hip Replacement,Luxembourg Orthopedic Hospital,"Luxembourg, Luxembourg",,,,,Specializing in orthopedic procedures,
Luxembourg,Luxembourg,Colonoscopy,Luxembourg Medical Diagnostic Center,"Luxembourg, Luxembourg",,,,,Specializing in diagnostics procedures,
Luxembourg,Luxembourg,Gastric Bypass,Luxembourg Bariatric Surgery Center,"Luxembourg, Luxembourg",,,,,Specializing in bariatric procedures,
Luxembourg,Luxembourg,Rhinoplasty,Luxembourg Aesthetic Surgery Center,"Luxembourg, Luxembourg",,,,,Specializing in cosmetic procedures,
Luxembourg,Luxembourg,Breast Augmentation,Luxembourg Aesthetic Surgery Center,"Luxembourg, Luxembourg",,,,,Specializing in cosmetic procedures,
Luxembourg,Luxembourg,LASIK,Luxembourg Eye Center,"Luxembourg, Luxembourg",,,,,Specializing in eye procedures,
Luxembourg,Luxembourg,Hair Transplant (3000 grafts),Luxembourg Hair Restoration Clinic,"Luxembourg, Luxembourg",,,,,Specializing in hair procedures,
Luxembourg,Luxembourg,IVF (Fertility Treatment),Luxembourg Fertility Center,"Luxembourg, Luxembourg",,,,,Specializing in fertility procedures,
Madrid,Spain,Dental Veneers (Full Mouth),Madrid Dental Center,"Madrid, Spain",,,,,Specializing in dental procedures,
Madrid,Spain,Dental Implant,Madrid Dental Center,"Madrid, Spain",,,,,Specializing in dental procedures,
Madrid,Spain,Gender Reassignment Surgery,Madrid Gender Affirmation Center,"Madrid, Spain",,,,,Specializing in gender procedures,
Madrid,Spain,Knee Replacement,Madrid Orthopedic Hospital,"Madrid, Spain",,,,,Specializing in orthopedic procedures,
Madrid,Spain,Hip Replacement,Madrid Orthopedic Hospital,"Madrid, Spain",,,,,Specializing in orthopedic procedures,
Madrid,Spain,Colonoscopy,Madrid Medical Diagnostic Center,"Madrid, Spain",,,,,Specializing in diagnostics procedures,
Madrid,Spain,Gastric Bypass,Madrid Bariatric Surgery Center,"Madrid, Spain",,,,,Specializing in bariatric procedures,
Madrid,Spain,Rhinoplasty,Madrid Aesthetic Surgery Center,"Madrid, Spain",,,,,Specializing in cosmetic procedures,
Madrid,Spain,Botox,Madrid Aesthetic Surgery Center,"Madrid, Spain",,,,,Specializing in cosmetic procedures,
Madrid,Spain,LASIK,Madrid Eye Center,"Madrid, Spain",,,,,Specializing in eye procedures,
Madrid,Spain,Hair Transplant (3000 grafts),Madrid Hair Restoration Clinic,"Madrid, Spain",,,,,Specializing in hair procedures,
Madrid,Spain,IVF (Fertility Treatment),Madrid Fertility Center,"Madrid, Spain",,,,,Specializing in fertility procedures,
Manila,Philippines,Gastric Bypass,Manila Bariatric Surgery Center,"Manila, Philippines",,,,,Specializing in bariatric procedures,
Manila,Philippines,Hip Replacement,Manila Orthopedic Hospital,"Manila, Philippines",,,,,Specializing in orthopedic procedures,
Manila,Philippines,Knee Replacement,Manila Orthopedic Hospital,"Manila, Philippines",,,,,Specializing in orthopedic procedures,
Manila,Philippines,LASIK,Manila Eye Center,"Manila, Philippines",,,,,Specializing in eye procedures,
Manila,Philippines,Breast Augmentation,Manila Aesthetic Surgery Center,"Manila, Philippines",,,,,Specializing in cosmetic procedures,
Manila,Philippines,Facelift,Manila Aesthetic Surgery Center,"Manila, Philippines",,,,,Specializing in cosmetic procedures,
Manila,Philippines,NAD+ IV Injection,Manila Regenerative Medicine Center,"Manila, Philippines",,,,,Specializing in regenerative procedures,
Manila,Philippines,PRP Therapy,Manila Regenerative Medicine Center,"Manila, Philippines",,,,,Specializing in regenerative procedures,
Manila,Philippines,Colonoscopy,Manila Medical Diagnostic Center,"Manila, Philippines",,,,,Specializing in diagnostics procedures,
Manila,Philippines,Dental Implant,Manila Dental Center,"Manila, Philippines",,,,,Specializing in dental procedures,
Manila,Philippines,Dental Veneers (Full Mouth),Manila Dental Center,"Manila, Philippines",,,,,Specializing in dental procedures,
Manila,Philippines,IVF (Fertility Treatment),Manila Fertility Center,"Manila, Philippines",,,,,Specializing in fertility procedures,
Manila,Philippines,Hair Transplant (3000 grafts),Manila Hair Restoration Clinic,"Manila, Philippines",,,,,Specializing in hair procedures,
Medellín,Colombia,Dental Veneers (Full Mouth),Medellín Dental Center,"Medellín, Colombia",,,,,Specializing in dental procedures,
Medellín,Colombia,Dental Implant,Medellín Dental Center,"Medellín, Colombia",,,,,Specializing in dental procedures,
Medellín,Colombia,Knee Replacement,Medellín Orthopedic Hospital,"Medellín, Colombia",,,,,Specializing in orthopedic procedures,
Medellín,Colombia,Hip Replacement,Medellín Orthopedic Hospital,"Medellín, Colombia",,,,,Specializing in orthopedic procedures,
Medellín,Colombia,Colonoscopy,Medellín Medical Diagnostic Center,"Medellín, Colombia",,,,,Specializing in diagnostics procedures,
Medellín,Colombia,Gastric Bypass,Medellín Bariatric Surgery Center,"Medellín, Colombia",,,,,Specializing in bariatric procedures,
Medellín,Colombia,Rhinoplasty,Medellín Aesthetic Surgery Center,"Medellín, Colombia",,,,,Specializing in cosmetic procedures,
Medellín,Colombia,Breast Augmentation,Medellín Aesthetic Surgery Center,"Medellín, Colombia",,,,,Specializing in cosmetic procedures,
Medellín,Colombia,LASIK,Medellín Eye Center,"Medellín, Colombia",,,,,Specializing in eye procedures,
Medellín,Colombia,Hair Transplant (3000 grafts),Medellín Hair Restoration Clinic,"Medellín, Colombia",,,,,Specializing in hair procedures,
Medellín,Colombia,IVF (Fertility Treatment),Medellín Fertility Center,"Medellín, Colombia",,,,,Specializing in fertility procedures,
Melbourne,Australia,Dental Veneers (Full Mouth),Melbourne Dental Center,"Melbourne, Australia",,,,,Specializing in dental procedures,
Melbourne,Australia,Dental Implant,Melbourne Dental Center,"Melbourne, Australia",,,,,Specializing in dental procedures,
Melbourne,Australia,Knee Replacement,Melbourne Orthopedic Hospital,"Melbourne, Australia",,,,,Specializing in orthopedic procedures,
Melbourne,Australia,Hip Replacement,Melbourne Orthopedic Hospital,"Melbourne, Australia",,,,,Specializing in orthopedic procedures,
Melbourne,Australia,Colonoscopy,Melbourne Medical Diagnostic Center,"Melbourne, Australia",,,,,Specializing in diagnostics procedures,
Melbourne,Australia,Gastric Bypass,Melbourne Bariatric Surgery Center,"Melbourne, Australia",,,,,Specializing in bariatric procedures,
Melbourne,Australia,Rhinoplasty,Melbourne Aesthetic Surgery Center,"Melbourne, Australia",,,,,Specializing in cosmetic procedures,
Melbourne,Australia,Breast Augmentation,Melbourne Aesthetic Surgery Center,"Melbourne, Australia",,,,,Specializing in cosmetic procedures,
Melbourne,Australia,LASIK,Melbourne Eye Center,"Melbourne, Australia",,,,,Specializing in eye procedures,
Melbourne,Australia,Hair Transplant (3000 grafts),Melbourne Hair Restoration Clinic,"Melbourne, Australia",,,,,Specializing in hair procedures,
Melbourne,Australia,IVF (Fertility Treatment),Melbourne Fertility Center,"Melbourne, Australia",,,,,Specializing in fertility procedures,
Mexico City,Mexico,Human Growth Hormone (HGH),Mexico City Hormone Therapy Clinic,"Mexico City, Mexico",,,,,Specializing in hormone procedures,
Mexico City,Mexico,Testosterone Replacement Therapy (TRT),Mexico City Hormone Therapy Clinic,"Mexico City, Mexico",,,,,Specializing in hormone procedures,
Mexico City,Mexico,Gender Reassignment Surgery,Mexico City Gender Affirmation Center,"Mexico City, Mexico",,,,,Specializing in gender procedures,
Mexico City,Mexico,Gastric Bypass,Mexico City Bariatric Surgery Center,"Mexico City, Mexico",,,,,Specializing in bariatric procedures,
Mexico City,Mexico,Hip Replacement,Mexico City Orthopedic Hospital,"Mexico City, Mexico",,,,,Specializing in orthopedic procedures,
Mexico City,Mexico,Knee Replacement,Mexico City Orthopedic Hospital,"Mexico City, Mexico",,,,,Specializing in orthopedic procedures,
Mexico City,Mexico,LASIK,Mexico City Eye Center,"Mexico City, Mexico",,,,,Specializing in eye procedures,
Mexico City,Mexico,Breast Augmentation,Mexico City Aesthetic Surgery Center,"Mexico City, Mexico",,,,,Specializing in cosmetic procedures,
Mexico City,Mexico,Facelift,Mexico City Aesthetic Surgery Center,"Mexico City, Mexico",,,,,Specializing in cosmetic procedures,
Mexico City,Mexico,NAD+ IV Injection,Mexico City Regenerative Medicine Center,"Mexico City, Mexico",,,,,Specializing in regenerative procedures,
Mexico City,Mexico,Stem Cell Therapy,Mexico City Regenerative Medicine Center,"Mexico City, Mexico",,,,,Specializing in regenerative procedures,
Mexico City,Mexico,Colonoscopy,Mexico City Medical Diagnostic Center,"Mexico City, Mexico",,,,,Specializing in diagnostics procedures,
Mexico City,Mexico,Dental Implant,Mexico City Dental Center,"Mexico City, Mexico",,,,,Specializing in dental procedures,
Mexico City,Mexico,Dental Veneers (Full Mouth),Mexico City Dental Center,"Mexico City, Mexico",,,,,Specializing in dental procedures,
Mexico City,Mexico,IVF (Fertility Treatment),Mexico City Fertility Center,"Mexico City, Mexico",,,,,Specializing in fertility procedures,
Mexico City,Mexico,Hair Transplant (3000 grafts),Mexico City Hair Restoration Clinic,"Mexico City, Mexico",,,,,Specializing in hair procedures,
Moscow,Russia,Dental Veneers (Full Mouth),Moscow Dental Center,"Moscow, Russia",,,,,Specializing in dental procedures,
Moscow,Russia,Dental Implant,Moscow Dental Center,"Moscow, Russia",,,,,Specializing in dental procedures,
Moscow,Russia,Knee Replacement,Moscow Orthopedic Hospital,"Moscow, Russia",,,,,Specializing in orthopedic procedures,
Moscow,Russia,Hip Replacement,Moscow Orthopedic Hospital,"Moscow, Russia",,,,,Specializing in orthopedic procedures,
Moscow,Russia,Colonoscopy,Moscow Medical Diagnostic Center,"Moscow, Russia",,,,,Specializing in diagnostics procedures,
Moscow,Russia,Gastric Bypass,Moscow Bariatric Surgery Center,"Moscow, Russia",,,,,Specializing in bariatric procedures,
Moscow,Russia,Rhinoplasty,Moscow Aesthetic Surgery Center,"Moscow, Russia",,,,,Specializing in cosmetic procedures,
Moscow,Russia,Breast Augmentation,Moscow Aesthetic Surgery Center,"Moscow, Russia",,,,,Specializing in cosmetic procedures,
Moscow,Russia,LASIK,Moscow Eye Center,"Moscow, Russia",,,,,Specializing in eye procedures,
Moscow,Russia,Hair Transplant (3000 grafts),Moscow Hair Restoration Clinic,"Moscow, Russia",,,,,Specializing in hair procedures,
Moscow,Russia,IVF (Fertility Treatment),Moscow Fertility Center,"Moscow, Russia",,,,,Specializing in fertility procedures,
Mumbai,India,Human Growth Hormone (HGH),Mumbai Hormone Therapy Clinic,"Mumbai, India",,,,,Specializing in hormone procedures,
Mumbai,India,Testosterone Replacement Therapy (TRT),Mumbai Hormone Therapy Clinic,"Mumbai, India",,,,,Specializing in hormone procedures,
Mumbai,India,Gender Reassignment Surgery,Mumbai Gender Affirmation Center,"Mumbai, India",,,,,Specializing in gender procedures,
Mumbai,India,Gastric Bypass,Mumbai Bariatric Surgery Center,"Mumbai, India",,,,,Specializing in bariatric procedures,
Mumbai,India,Hip Replacement,Mumbai Orthopedic Hospital,"Mumbai, India",,,,,Specializing in orthopedic procedures,
Mumbai,India,Limb Lengthening Surgery,Mumbai Orthopedic Hospital,"Mumbai, India",,,,,Specializing in orthopedic procedures,
Mumbai,India,LASIK,Mumbai Eye Center,"Mumbai, India",,,,,Specializing in eye procedures,
Mumbai,India,Breast Augmentation,Mumbai Aesthetic Surgery Center,"Mumbai, India",,,,,Specializing in cosmetic procedures,
Mumbai,India,Facelift,Mumbai Aesthetic Surgery Center,"Mumbai, India",,,,,Specializing in cosmetic procedures,
Mumbai,India,Colonoscopy,Mumbai Medical Diagnostic Center,"Mumbai, India",,,,,Specializing in diagnostics procedures,
Mumbai,India,Advanced Health Screening,Mumbai Medical Diagnostic Center,"Mumbai, India",,,,,Specializing in diagnostics procedures,
Mumbai,India,Dental Implant,Mumbai Dental Center,"Mumbai, India",,,,,Specializing in dental procedures,
Mumbai,India,Dental Veneers (Full Mouth),Mumbai Dental Center,"Mumbai, India",,,,,Specializing in dental procedures,
Mumbai,India,Stem Cell Therapy,Mumbai Regenerative Medicine Center,"Mumbai, India",,,,,Specializing in regenerative procedures,
Mumbai,India,Plasma Exchange (TPE) Therapy,Mumbai Regenerative Medicine Center,"Mumbai, India",,,,,Specializing in regenerative procedures,
Mumbai,India,IVF (Fertility Treatment),Mumbai Fertility Center,"Mumbai, India",,,,,Specializing in fertility procedures,
Mumbai,India,Hair Transplant (3000 grafts),Mumbai Hair Restoration Clinic,"Mumbai, India",,,,,Specializing in hair procedures,
New York,United States,Human Growth Hormone (HGH),New York Hormone Therapy Clinic,"New York, United States",,,,,Specializing in hormone procedures,
New York,United States,Testosterone Replacement Therapy (TRT),New York Hormone Therapy Clinic,"New York, United States",,,,,Specializing in hormone procedures,
New York,United States,Limb Lengthening Surgery,New York Orthopedic Hospital,"New York, United States",,,,,Specializing in orthopedic procedures,
New York,United States,Gender Reassignment Surgery,New York Gender Affirmation Center,"New York, United States",,,,,Specializing in gender procedures,
New York City,USA,Dental Veneers (Full Mouth),New York City Dental Center,"New York City, USA",,,,,Specializing in dental procedures,
New York City,USA,Dental Implant,New York City Dental Center,"New York City, USA",,,,,Specializing in dental procedures,
New York City,USA,Knee Replacement,New York City Orthopedic Hospital,"New York City, USA",,,,,Specializing in orthopedic procedures,
New York City,USA,Hip Replacement,New York City Orthopedic Hospital,"New York City, USA",,,,,Specializing in orthopedic procedures,
New York City,USA,Colonoscopy,New York City Medical Diagnostic Center,"New York City, USA",,,,,Specializing in diagnostics procedures,
New York City,USA,Gastric Bypass,New York City Bariatric Surgery Center,"New York City, USA",,,,,Specializing in bariatric procedures,
New York City,USA,Rhinoplasty,New York City Aesthetic Surgery Center,"New York City, USA",,,,,Specializing in cosmetic procedures,
New York City,USA,Breast Augmentation,New York City Aesthetic Surgery Center,"New York City, USA",,,,,Specializing in cosmetic procedures,
New York City,USA,LASIK,New York City Eye Center,"New York City, USA",,,,,Specializing in eye procedures,
New York City,USA,Hair Transplant (3000 grafts),New York City Hair Restoration Clinic,"New York City, USA",,,,,Specializing in hair procedures,
New York City,USA,IVF (Fertility Treatment),New York City Fertility Center,"New York City, USA",,,,,Specializing in fertility procedures,
Oslo,Norway,Dental Veneers (Full Mouth),Oslo Dental Center,"Oslo, Norway",,,,,Specializing in dental procedures,
Oslo,Norway,Dental Implant,Oslo Dental Center,"Oslo, Norway",,,,,Specializing in dental procedures,
Oslo,Norway,Knee Replacement,Oslo Orthopedic Hospital,"Oslo, Norway",,,,,Specializing in orthopedic procedures,
Oslo,Norway,Hip Replacement,Oslo Orthopedic Hospital,"Oslo, Norway",,,,,Specializing in orthopedic procedures,
Oslo,Norway,Colonoscopy,Oslo Medical Diagnostic Center,"Oslo, Norway",,,,,Specializing in diagnostics procedures,
Oslo,Norway,Gastric Bypass,Oslo Bariatric Surgery Center,"Oslo, Norway",,,,,Specializing in bariatric procedures,
Oslo,Norway,Rhinoplasty,Oslo Aesthetic Surgery Center,"Oslo, Norway",,,,,Specializing in cosmetic procedures,
Oslo,Norway,Botox,Oslo Aesthetic Surgery Center,"Oslo, Norway",,,,,Specializing in cosmetic procedures,
Oslo,Norway,LASIK,Oslo Eye Center,"Oslo, Norway",,,,,Specializing in eye procedures,
Oslo,Norway,Hair Transplant (3000 grafts),Oslo Hair Restoration Clinic,"Oslo, Norway",,,,,Specializing in hair procedures,
Oslo,Norway,IVF (Fertility Treatment),Oslo Fertility Center,"Oslo, Norway",,,,,Specializing in fertility procedures,
Paris,France,Dental Veneers (Full Mouth),Paris Dental Center,"Paris, France",,,,,Specializing in dental procedures,
Paris,France,Dental Implant,Paris Dental Center,"Paris, France",,,,,Specializing in dental procedures,
Paris,France,Knee Replacement,Paris Orthopedic Hospital,"Paris, France",,,,,Specializing in orthopedic procedures,
Paris,France,Hip Replacement,Paris Orthopedic Hospital,"Paris, France",,,,,Specializing in orthopedic procedures,
Paris,France,Colonoscopy,Paris Medical Diagnostic Center,"Paris, France",,,,,Specializing in diagnostics procedures,
Paris,France,Gastric Bypass,Paris Bariatric Surgery Center,"Paris, France",,,,,Specializing in bariatric procedures,
Paris,France,Rhinoplasty,Paris Aesthetic Surgery Center,"Paris, France",,,,,Specializing in cosmetic procedures,
Paris,France,Breast Augmentation,Paris Aesthetic Surgery Center,"Paris, France",,,,,Specializing in cosmetic procedures,
Paris,France,LASIK,Paris Eye Center,"Paris, France",,,,,Specializing in eye procedures,
Paris,France,Hair Transplant (3000 grafts),Paris Hair Restoration Clinic,"Paris, France",,,,,Specializing in hair procedures,
Paris,France,IVF (Fertility Treatment),Paris Fertility Center,"Paris, France",,,,,Specializing in fertility procedures,
Philadelphia,USA,Dental Veneers (Full Mouth),Philadelphia Dental Center,"Philadelphia, USA",,,,,Specializing in dental procedures,
Philadelphia,USA,Dental Implant,Philadelphia Dental Center,"Philadelphia, USA",,,,,Specializing in dental procedures,
Philadelphia,USA,Knee Replacement,Philadelphia Orthopedic Hospital,"Philadelphia, USA",,,,,Specializing in orthopedic procedures,
Philadelphia,USA,Hip Replacement,Philadelphia Orthopedic Hospital,"Philadelphia, USA",,,,,Specializing in orthopedic procedures,
Philadelphia,USA,Colonoscopy,Philadelphia Medical Diagnostic Center,"Philadelphia, USA",,,,,Specializing in diagnostics procedures,
Philadelphia,USA,Gastric Bypass,Philadelphia Bariatric Surgery Center,"Philadelphia, USA",,,,,Specializing in bariatric procedures,
Philadelphia,USA,Rhinoplasty,Philadelphia Aesthetic Surgery Center,"Philadelphia, USA",,,,,Specializing in cosmetic procedures,
Philadelphia,USA,Breast Augmentation,Philadelphia Aesthetic Surgery Center,"Philadelphia, USA",,,,,Specializing in cosmetic procedures,
Philadelphia,USA,LASIK,Philadelphia Eye Center,"Philadelphia, USA",,,,,Specializing in eye procedures,
Philadelphia,USA,Hair Transplant (3000 grafts),Philadelphia Hair Restoration Clinic,"Philadelphia, USA",,,,,Specializing in hair procedures,
Philadelphia,USA,IVF (Fertility Treatment),Philadelphia Fertility Center,"Philadelphia, USA",,,,,Specializing in fertility procedures,
Phoenix,USA,Dental Veneers (Full Mouth),Phoenix Dental Center,"Phoenix, USA",,,,,Specializing in dental procedures,
Phoenix,USA,Dental Implant,Phoenix Dental Center,"Phoenix, USA",,,,,Specializing in dental procedures,
Phoenix,USA,Knee Replacement,Phoenix Orthopedic Hospital,"Phoenix, USA",,,,,Specializing in orthopedic procedures,
Phoenix,USA,Hip Replacement,Phoenix Orthopedic Hospital,"Phoenix, USA",,,,,Specializing in orthopedic procedures,
Phoenix,USA,Colonoscopy,Phoenix Medical Diagnostic Center,"Phoenix, USA",,,,,Specializing in diagnostics procedures,
Phoenix,USA,Gastric Bypass,Phoenix Bariatric Surgery Center,"Phoenix, USA",,,,,Specializing in bariatric procedures,
Phoenix,USA,Rhinoplasty,Phoenix Aesthetic Surgery Center,"Phoenix, USA",,,,,Specializing in cosmetic procedures,
Phoenix,USA,Breast Augmentation,Phoenix Aesthetic Surgery Center,"Phoenix, USA",,,,,Specializing in cosmetic procedures,
Phoenix,USA,LASIK,Phoenix Eye Center,"Phoenix, USA",,,,,Specializing in eye procedures,
Phoenix,USA,Hair Transplant (3000 grafts),Phoenix Hair Restoration Clinic,"Phoenix, USA",,,,,Specializing in hair procedures,
Phoenix,USA,IVF (Fertility Treatment),Phoenix Fertility Center,"Phoenix, USA",,,,,Specializing in fertility procedures,
Prague,Czech Republic,Human Growth Hormone (HGH),Prague Hormone Therapy Clinic,"Prague, Czech Republic",,,,,Specializing in hormone procedures,
Prague,Czech Republic,Testosterone Replacement Therapy (TRT),Prague Hormone Therapy Clinic,"Prague, Czech Republic",,,,,Specializing in hormone procedures,
Prague,Czech Republic,Dental Veneers (Full Mouth),Prague Dental Center,"Prague, Czech Republic",,,,,Specializing in dental procedures,
Prague,Czech Republic,Dental Implant,Prague Dental Center,"Prague, Czech Republic",,,,,Specializing in dental procedures,
Prague,Czech Republic,Knee Replacement,Prague Orthopedic Hospital,"Prague, Czech Republic",,,,,Specializing in orthopedic procedures,
Prague,Czech Republic,Hip Replacement,Prague Orthopedic Hospital,"Prague, Czech Republic",,,,,Specializing in orthopedic procedures,
Prague,Czech Republic,Colonoscopy,Prague Medical Diagnostic Center,"Prague, Czech Republic",,,,,Specializing in diagnostics procedures,
Prague,Czech Republic,Gastric Bypass,Prague Bariatric Surgery Center,"Prague, Czech Republic",,,,,Specializing in bariatric procedures,
Prague,Czech Republic,Rhinoplasty,Prague Aesthetic Surgery Center,"Prague, Czech Republic",,,,,Specializing in cosmetic procedures,
Prague,Czech Republic,Breast Augmentation,Prague Aesthetic Surgery Center,"Prague, Czech Republic",,,,,Specializing in cosmetic procedures,
Prague,Czech Republic,LASIK,Prague Eye Center,"Prague, Czech Republic",,,,,Specializing in eye procedures,
Prague,Czech Republic,Hair Transplant (3000 grafts),Prague Hair Restoration Clinic,"Prague, Czech Republic",,,,,Specializing in hair procedures,
Prague,Czech Republic,IVF (Fertility Treatment),Prague Fertility Center,"Prague, Czech Republic",,,,,Specializing in fertility procedures,
Riga,Latvia,Dental Veneers (Full Mouth),Riga Dental Center,"Riga, Latvia",,,,,Specializing in dental procedures,
Riga,Latvia,Dental Implant,Riga Dental Center,"Riga, Latvia",,,,,Specializing in dental procedures,
Riga,Latvia,Knee Replacement,Riga Orthopedic Hospital,"Riga, Latvia",,,,,Specializing in orthopedic procedures,
Riga,Latvia,Hip Replacement,Riga Orthopedic Hospital,"Riga, Latvia",,,,,Specializing in orthopedic procedures,
Riga,Latvia,Colonoscopy,Riga Medical Diagnostic Center,"Riga, Latvia",,,,,Specializing in diagnostics procedures,
Riga,Latvia,Gastric Bypass,Riga Bariatric Surgery Center,"Riga, Latvia",,,,,Specializing in bariatric procedures,
Riga,Latvia,Rhinoplasty,Riga Aesthetic Surgery Center,"Riga, Latvia",,,,,Specializing in cosmetic procedures,
Riga,Latvia,Breast Augmentation,Riga Aesthetic Surgery Center,"Riga, Latvia",,,,,Specializing in cosmetic procedures,
Riga,Latvia,LASIK,Riga Eye Center,"Riga, Latvia",,,,,Specializing in eye procedures,
Riga,Latvia,Hair Transplant (3000 grafts),Riga Hair Restoration Clinic,"Riga, Latvia",,,,,Specializing in hair procedures,
Riga,Latvia,IVF (Fertility Treatment),Riga Fertility Center,"Riga, Latvia",,,,,Specializing in fertility procedures,
Rio de Janeiro,Brazil,Dental Veneers (Full Mouth),Rio de Janeiro Dental Center,"Rio de Janeiro, Brazil",,,,,Specializing in dental procedures,
Rio de Janeiro,Brazil,Dental Implant,Rio de Janeiro Dental Center,"Rio de Janeiro, Brazil",,,,,Specializing in dental procedures,
Rio de Janeiro,Brazil,Knee Replacement,Rio de Janeiro Orthopedic Hospital,"Rio de Janeiro, Brazil",,,,,Specializing in orthopedic procedures,
Rio de Janeiro,Brazil,Hip Replacement,Rio de Janeiro Orthopedic Hospital,"Rio de Janeiro, Brazil",,,,,Specializing in orthopedic procedures,
Rio de Janeiro,Brazil,Colonoscopy,Rio de Janeiro Medical Diagnostic Center,"Rio de Janeiro, Brazil",,,,,Specializing in diagnostics procedures,
Rio de Janeiro,Brazil,Gastric Bypass,Rio de Janeiro Bariatric Surgery Center,"Rio de Janeiro, Brazil",,,,,Specializing in bariatric procedures,
Rio de Janeiro,Brazil,Rhinoplasty,Rio de Janeiro Aesthetic Surgery Center,"Rio de Janeiro, Brazil",,,,,Specializing in cosmetic procedures,
Rio de Janeiro,Brazil,Breast Augmentation,Rio de Janeiro Aesthetic Surgery Center,"Rio de Janeiro, Brazil",,,,,Specializing in cosmetic procedures,
Rio de Janeiro,Brazil,LASIK,Rio de Janeiro Eye Center,"Rio de Janeiro, Brazil",,,,,Specializing in eye procedures,
Rio de Janeiro,Brazil,Hair Transplant (3000 grafts),Rio de Janeiro Hair Restoration Clinic,"Rio de Janeiro, Brazil",,,,,Specializing in hair procedures,
Rio de Janeiro,Brazil,IVF (Fertility Treatment),Rio de Janeiro Fertility Center,"Rio de Janeiro, Brazil",,,,,Specializing in fertility procedures,
Rome,Italy,Dental Veneers (Full Mouth),Rome Dental Center,"Rome, Italy",,,,,Specializing in dental procedures,
Rome,Italy,Dental Implant,Rome Dental Center,"Rome, Italy",,,,,Specializing in dental procedures,
Rome,Italy,Knee Replacement,Rome Orthopedic Hospital,"Rome, Italy",,,,,Specializing in orthopedic procedures,
Rome,Italy,Hip Replacement,Rome Orthopedic Hospital,"Rome, Italy",,,,,Specializing in orthopedic procedures,
Rome,Italy,Colonoscopy,Rome Medical Diagnostic Center,"Rome, Italy",,,,,Specializing in diagnostics procedures,
Rome,Italy,Gastric Bypass,Rome Bariatric Surgery Center,"Rome, Italy",,,,,Specializing in bariatric procedures,
Rome,Italy,Rhinoplasty,Rome Aesthetic Surgery Center,"Rome, Italy",,,,,Specializing in cosmetic procedures,
Rome,Italy,Breast Augmentation,Rome Aesthetic Surgery Center,"Rome, Italy",,,,,Specializing in cosmetic procedures,
Rome,Italy,LASIK,Rome Eye Center,"Rome, Italy",,,,,Specializing in eye procedures,
Rome,Italy,Hair Transplant (3000 grafts),Rome Hair Restoration Clinic,"Rome, Italy",,,,,Specializing in hair procedures,
Rome,Italy,IVF (Fertility Treatment),Rome Fertility Center,"Rome, Italy",,,,,Specializing in fertility procedures,
San Antonio,USA,Dental Veneers (Full Mouth),San Antonio Dental Center,"San Antonio, USA",,,,,Specializing in dental procedures,
San Antonio,USA,Dental Implant,San Antonio Dental Center,"San Antonio, USA",,,,,Specializing in dental procedures,
San Antonio,USA,Knee Replacement,San Antonio Orthopedic Hospital,"San Antonio, USA",,,,,Specializing in orthopedic procedures,
San Antonio,USA,Hip Replacement,San Antonio Orthopedic Hospital,"San Antonio, USA",,,,,Specializing in orthopedic procedures,
San Antonio,USA,Colonoscopy,San Antonio Medical Diagnostic Center,"San Antonio, USA",,,,,Specializing in diagnostics procedures,
San Antonio,USA,Gastric Bypass,San Antonio Bariatric Surgery Center,"San Antonio, USA",,,,,Specializing in bariatric procedures,
San Antonio,USA,Rhinoplasty,San Antonio Aesthetic Surgery Center,"San Antonio, USA",,,,,Specializing in cosmetic procedures,
San Antonio,USA,Breast Augmentation,San Antonio Aesthetic Surgery Center,"San Antonio, USA",,,,,Specializing in cosmetic procedures,
San Antonio,USA,LASIK,San Antonio Eye Center,"San Antonio, USA",,,,,Specializing in eye procedures,
San Antonio,USA,Hair Transplant (3000 grafts),San Antonio Hair Restoration Clinic,"San Antonio, USA",,,,,Specializing in hair procedures,
San Antonio,USA,IVF (Fertility Treatment),San Antonio Fertility Center,"San Antonio, USA",,,,,Specializing in fertility procedures,
San Diego,USA,Dental Veneers (Full Mouth),San Diego Dental Center,"San Diego, USA",,,,,Specializing in dental procedures,
San Diego,USA,Dental Implant,San Diego Dental Center,"San Diego, USA",,,,,Specializing in dental procedures,
San Diego,USA,Knee Replacement,San Diego Orthopedic Hospital,"San Diego, USA",,,,,Specializing in orthopedic procedures,
San Diego,USA,Hip Replacement,San Diego Orthopedic Hospital,"San Diego, USA",,,,,Specializing in orthopedic procedures,
San Diego,USA,Colonoscopy,San Diego Medical Diagnostic Center,"San Diego, USA",,,,,Specializing in diagnostics procedures,
San Diego,USA,Gastric Bypass,San Diego Bariatric Surgery Center,"San Diego, USA",,,,,Specializing in bariatric procedures,
San Diego,USA,Rhinoplasty,San Diego Aesthetic Surgery Center,"San Diego, USA",,,,,Specializing in cosmetic procedures,
San Diego,USA,Breast Augmentation,San Diego Aesthetic Surgery Center,"San Diego, USA",,,,,Specializing in cosmetic procedures,
San Diego,USA,LASIK,San Diego Eye Center,"San Diego, USA",,,,,Specializing in eye procedures,
San Diego,USA,Hair Transplant (3000 grafts),San Diego Hair Restoration Clinic,"San Diego, USA",,,,,Specializing in hair procedures,
San Diego,USA,IVF (Fertility Treatment),San Diego Fertility Center,"San Diego, USA",,,,,Specializing in fertility procedures,
San Jose,USA,Dental Veneers (Full Mouth),San Jose Dental Center,"San Jose, USA",,,,,Specializing in dental procedures,
San Jose,USA,Dental Implant,San Jose Dental Center,"San Jose, USA",,,,,Specializing in dental procedures,
San Jose,USA,Gender Reassignment Surgery,San Jose Gender Affirmation Center,"San Jose, USA",,,,,Specializing in gender procedures,
San Jose,USA,Knee Replacement,San Jose Orthopedic Hospital,"San Jose, USA",,,,,Specializing in orthopedic procedures,
San Jose,USA,Hip Replacement,San Jose Orthopedic Hospital,"San Jose, USA",,,,,Specializing in orthopedic procedures,
San Jose,USA,Colonoscopy,San Jose Medical Diagnostic Center,"San Jose, USA",,,,,Specializing in diagnostics procedures,
San Jose,USA,Gastric Bypass,San Jose Bariatric Surgery Center,"San Jose, USA",,,,,Specializing in bariatric procedures,
San Jose,USA,Rhinoplasty,San Jose Aesthetic Surgery Center,"San Jose, USA",,,,,Specializing in cosmetic procedures,
San Jose,USA,Breast Augmentation,San Jose Aesthetic Surgery Center,"San Jose, USA",,,,,Specializing in cosmetic procedures,
San Jose,USA,LASIK,San Jose Eye Center,"San Jose, USA",,,,,Specializing in eye procedures,
San Jose,USA,Hair Transplant (3000 grafts),San Jose Hair Restoration Clinic,"San Jose, USA",,,,,Specializing in hair procedures,
San Jose,USA,IVF (Fertility Treatment),San Jose Fertility Center,"San Jose, USA",,,,,Specializing in fertility procedures,
Seoul,South Korea,Gender Reassignment Surgery,Seoul Gender Affirmation Center,"Seoul, South Korea",,,,,Specializing in gender procedures,
Seoul,South Korea,Gastric Bypass,Seoul Bariatric Surgery Center,"Seoul, South Korea",,,,,Specializing in bariatric procedures,
Seoul,South Korea,Hip Replacement,Seoul Orthopedic Hospital,"Seoul, South Korea",,,,,Specializing in orthopedic procedures,
Seoul,South Korea,Limb Lengthening Surgery,Seoul Orthopedic Hospital,"Seoul, South Korea",,,,,Specializing in orthopedic procedures,
Seoul,South Korea,LASIK,Seoul Eye Center,"Seoul, South Korea",,,,,Specializing in eye procedures,
Seoul,South Korea,Breast Augmentation,Seoul Aesthetic Surgery Center,"Seoul, South Korea",,,,,Specializing in cosmetic procedures,
Seoul,South Korea,Facelift,Seoul Aesthetic Surgery Center,"Seoul, South Korea",,,,,Specializing in cosmetic procedures,
Seoul,South Korea,Biochip Implantation,Seoul Regenerative Medicine Center,"Seoul, South Korea",,,,,Specializing in regenerative procedures,
Seoul,South Korea,NAD+ IV Injection,Seoul Regenerative Medicine Center,"Seoul, South Korea",,,,,Specializing in regenerative procedures,
Seoul,South Korea,Colonoscopy,Seoul Medical Diagnostic Center,"Seoul, South Korea",,,,,Specializing in diagnostics procedures,
Seoul,South Korea,Advanced Health Screening,Seoul Medical Diagnostic Center,"Seoul, South Korea",,,,,Specializing in diagnostics procedures,
Seoul,South Korea,Dental Implant,Seoul Dental Center,"Seoul, South Korea",,,,,Specializing in dental procedures,
Seoul,South Korea,Dental Veneers (Full Mouth),Seoul Dental Center,"Seoul, South Korea",,,,,Specializing in dental procedures,
Seoul,South Korea,IVF (Fertility Treatment),Seoul Fertility Center,"Seoul, South Korea",,,,,Specializing in fertility procedures,
Seoul,South Korea,Hair Transplant (3000 grafts),Seoul Hair Restoration Clinic,"Seoul, South Korea",,,,,Specializing in hair procedures,
Shanghai,China,Gastric Bypass,Shanghai Bariatric Surgery Center,"Shanghai, China",,,,,Specializing in bariatric procedures,
Shanghai,China,Hip Replacement,Shanghai Orthopedic Hospital,"Shanghai, China",,,,,Specializing in orthopedic procedures,
Shanghai,China,Knee Replacement,Shanghai Orthopedic Hospital,"Shanghai, China",,,,,Specializing in orthopedic procedures,
Shanghai,China,LASIK,Shanghai Eye Center,"Shanghai, China",,,,,Specializing in eye procedures,
Shanghai,China,Breast Augmentation,Shanghai Aesthetic Surgery Center,"Shanghai, China",,,,,Specializing in cosmetic procedures,
Shanghai,China,Facelift,Shanghai Aesthetic Surgery Center,"Shanghai, China",,,,,Specializing in cosmetic procedures,
Shanghai,China,Biochip Implantation,Shanghai Regenerative Medicine Center,"Shanghai, China",,,,,Specializing in regenerative procedures,
Shanghai,China,Peptide Therapy,Shanghai Regenerative Medicine Center,"Shanghai, China",,,,,Specializing in regenerative procedures,
Shanghai,China,Colonoscopy,Shanghai Medical Diagnostic Center,"Shanghai, China",,,,,Specializing in diagnostics procedures,
Shanghai,China,Advanced Health Screening,Shanghai Medical Diagnostic Center,"Shanghai, China",,,,,Specializing in diagnostics procedures,
Shanghai,China,Dental Implant,Shanghai Dental Center,"Shanghai, China",,,,,Specializing in dental procedures,
Shanghai,China,Dental Veneers (Full Mouth),Shanghai Dental Center,"Shanghai, China",,,,,Specializing in dental procedures,
Shanghai,China,IVF (Fertility Treatment),Shanghai Fertility Center,"Shanghai, China",,,,,Specializing in fertility procedures,
Shanghai,China,Hair Transplant (3000 grafts),Shanghai Hair Restoration Clinic,"Shanghai, China",,,,,Specializing in hair procedures,
Singapore,Singapore,Human Growth Hormone (HGH),Singapore Hormone Therapy Clinic,"Singapore, Singapore",,,,,Specializing in hormone procedures,
Singapore,Singapore,Gastric Bypass,Singapore Bariatric Surgery Center,"Singapore, Singapore",,,,,Specializing in bariatric procedures,
Singapore,Singapore,Hip Replacement,Singapore Orthopedic Hospital,"Singapore, Singapore",,,,,Specializing in orthopedic procedures,
Singapore,Singapore,Knee Replacement,Singapore Orthopedic Hospital,"Singapore, Singapore",,,,,Specializing in orthopedic procedures,
Singapore,Singapore,LASIK,Singapore Eye Center,"Singapore, Singapore",,,,,Specializing in eye procedures,
Singapore,Singapore,Breast Augmentation,Singapore Aesthetic Surgery Center,"Singapore, Singapore",,,,,Specializing in cosmetic procedures,
Singapore,Singapore,Facelift,Singapore Aesthetic Surgery Center,"Singapore, Singapore",,,,,Specializing in cosmetic procedures,
Singapore,Singapore,Biochip Implantation,Singapore Regenerative Medicine Center,"Singapore, Singapore",,,,,Specializing in regenerative procedures,
Singapore,Singapore,NAD+ IV Injection,Singapore Regenerative Medicine Center,"Singapore, Singapore",,,,,Specializing in regenerative procedures,
Singapore,Singapore,Colonoscopy,Singapore Medical Diagnostic Center,"Singapore, Singapore",,,,,Specializing in diagnostics procedures,
Singapore,Singapore,Advanced Health Screening,Singapore Medical Diagnostic Center,"Singapore, Singapore",,,,,Specializing in diagnostics procedures,
Singapore,Singapore,Dental Implant,Singapore Dental Center,"Singapore, Singapore",,,,,Specializing in dental procedures,
Singapore,Singapore,Dental Veneers (Full Mouth),Singapore Dental Center,"Singapore, Singapore",,,,,Specializing in dental procedures,
Singapore,Singapore,IVF (Fertility Treatment),Singapore Fertility Center,"Singapore, Singapore",,,,,Specializing in fertility procedures,
Singapore,Singapore,Hair Transplant (3000 grafts),Singapore Hair Restoration Clinic,"Singapore, Singapore",,,,,Specializing in hair procedures,
Sofia,Bulgaria,Dental Veneers (Full Mouth),Sofia Dental Center,"Sofia, Bulgaria",,,,,Specializing in dental procedures,
Sofia,Bulgaria,Dental Implant,Sofia Dental Center,"Sofia, Bulgaria",,,,,Specializing in dental procedures,
Sofia,Bulgaria,Knee Replacement,Sofia Orthopedic Hospital,"Sofia, Bulgaria",,,,,Specializing in orthopedic procedures,
Sofia,Bulgaria,Hip Replacement,Sofia Orthopedic Hospital,"Sofia, Bulgaria",,,,,Specializing in orthopedic procedures,
Sofia,Bulgaria,Colonoscopy,Sofia Medical Diagnostic Center,"Sofia, Bulgaria",,,,,Specializing in diagnostics procedures,
Sofia,Bulgaria,Gastric Bypass,Sofia Bariatric Surgery Center,"Sofia, Bulgaria",,,,,Specializing in bariatric procedures,
Sofia,Bulgaria,Rhinoplasty,Sofia Aesthetic Surgery Center,"Sofia, Bulgaria",,,,,Specializing in cosmetic procedures,
Sofia,Bulgaria,Breast Augmentation,Sofia Aesthetic Surgery Center,"Sofia, Bulgaria",,,,,Specializing in cosmetic procedures,
Sofia,Bulgaria,LASIK,Sofia Eye Center,"Sofia, Bulgaria",,,,,Specializing in eye procedures,
Sofia,Bulgaria,Hair Transplant (3000 grafts),Sofia Hair Restoration Clinic,"Sofia, Bulgaria",,,,,Specializing in hair procedures,
Sofia,Bulgaria,IVF (Fertility Treatment),Sofia Fertility Center,"Sofia, Bulgaria",,,,,Specializing in fertility procedures,
Stockholm,Sweden,Dental Veneers (Full Mouth),Stockholm Dental Center,"Stockholm, Sweden",,,,,Specializing in dental procedures,
Stockholm,Sweden,Dental Implant,Stockholm Dental Center,"Stockholm, Sweden",,,,,Specializing in dental procedures,
Stockholm,Sweden,Knee Replacement,Stockholm Orthopedic Hospital,"Stockholm, Sweden",,,,,Specializing in orthopedic procedures,
Stockholm,Sweden,Hip Replacement,Stockholm Orthopedic Hospital,"Stockholm, Sweden",,,,,Specializing in orthopedic procedures,
Stockholm,Sweden,Colonoscopy,Stockholm Medical Diagnostic Center,"Stockholm, Sweden",,,,,Specializing in diagnostics procedures,
Stockholm,Sweden,Gastric Bypass,Stockholm Bariatric Surgery Center,"Stockholm, Sweden",,,,,Specializing in bariatric procedures,
Stockholm,Sweden,Rhinoplasty,Stockholm Aesthetic Surgery Center,"Stockholm, Sweden",,,,,Specializing in cosmetic procedures,
Stockholm,Sweden,Breast Augmentation,Stockholm Aesthetic Surgery Center,"Stockholm, Sweden",,,,,Specializing in cosmetic procedures,
Stockholm,Sweden,LASIK,Stockholm Eye Center,"Stockholm, Sweden",,,,,Specializing in eye procedures,
Stockholm,Sweden,Hair Transplant (3000 grafts),Stockholm Hair Restoration Clinic,"Stockholm, Sweden",,,,,Specializing in hair procedures,
Stockholm,Sweden,IVF (Fertility Treatment),Stockholm Fertility Center,"Stockholm, Sweden",,,,,Specializing in fertility procedures,
Sydney,Australia,Dental Veneers (Full Mouth),Sydney Dental Center,"Sydney, Australia",,,,,Specializing in dental procedures,
Sydney,Australia,Dental Implant,Sydney Dental Center,"Sydney, Australia",,,,,Specializing in dental procedures,
Sydney,Australia,Knee Replacement,Sydney Orthopedic Hospital,"Sydney, Australia",,,,,Specializing in orthopedic procedures,
Sydney,Australia,Hip Replacement,Sydney Orthopedic Hospital,"Sydney, Australia",,,,,Specializing in orthopedic procedures,
Sydney,Australia,Colonoscopy,Sydney Medical Diagnostic Center,"Sydney, Australia",,,,,Specializing in diagnostics procedures,
Sydney,Australia,Gastric Bypass,Sydney Bariatric Surgery Center,"Sydney, Australia",,,,,Specializing in bariatric procedures,
Sydney,Australia,Rhinoplasty,Sydney Aesthetic Surgery Center,"Sydney, Australia",,,,,Specializing in cosmetic procedures,
Sydney,Australia,Breast Augmentation,Sydney Aesthetic Surgery Center,"Sydney, Australia",,,,,Specializing in cosmetic procedures,
Sydney,Australia,LASIK,Sydney Eye Center,"Sydney, Australia",,,,,Specializing in eye procedures,
Sydney,Australia,Hair Transplant (3000 grafts),Sydney Hair Restoration Clinic,"Sydney, Australia",,,,,Specializing in hair procedures,
Sydney,Australia,IVF (Fertility Treatment),Sydney Fertility Center,"Sydney, Australia",,,,,Specializing in fertility procedures,
Taipei,Taiwan,Gastric Bypass,Taipei Bariatric Surgery Center,"Taipei, Taiwan",,,,,Specializing in bariatric procedures,
Taipei,Taiwan,Hip Replacement,Taipei Orthopedic Hospital,"Taipei, Taiwan",,,,,Specializing in orthopedic procedures,
Taipei,Taiwan,Knee Replacement,Taipei Orthopedic Hospital,"Taipei, Taiwan",,,,,Specializing in orthopedic procedures,
Taipei,Taiwan,LASIK,Taipei Eye Center,"Taipei, Taiwan",,,,,Specializing in eye procedures,
Taipei,Taiwan,Breast Augmentation,Taipei Aesthetic Surgery Center,"Taipei, Taiwan",,,,,Specializing in cosmetic procedures,
Taipei,Taiwan,Facelift,Taipei Aesthetic Surgery Center,"Taipei, Taiwan",,,,,Specializing in cosmetic procedures,
Taipei,Taiwan,Biochip Implantation,Taipei Regenerative Medicine Center,"Taipei, Taiwan",,,,,Specializing in regenerative procedures,
Taipei,Taiwan,Hyperbaric Oxygen Therapy (HBOT),Taipei Regenerative Medicine Center,"Taipei, Taiwan",,,,,Specializing in regenerative procedures,
Taipei,Taiwan,Colonoscopy,Taipei Medical Diagnostic Center,"Taipei, Taiwan",,,,,Specializing in diagnostics procedures,
Taipei,Taiwan,Advanced Health Screening,Taipei Medical Diagnostic Center,"Taipei, Taiwan",,,,,Specializing in diagnostics procedures,
Taipei,Taiwan,Dental Implant,Taipei Dental Center,"Taipei, Taiwan",,,,,Specializing in dental procedures,
Taipei,Taiwan,Dental Veneers (Full Mouth),Taipei Dental Center,"Taipei, Taiwan",,,,,Specializing in dental procedures,
Taipei,Taiwan,IVF (Fertility Treatment),Taipei Fertility Center,"Taipei, Taiwan",,,,,Specializing in fertility procedures,
Taipei,Taiwan,Hair Transplant (3000 grafts),Taipei Hair Restoration Clinic,"Taipei, Taiwan",,,,,Specializing in hair procedures,
Tallinn,Estonia,Dental Veneers (Full Mouth),Tallinn Dental Center,"Tallinn, Estonia",,,,,Specializing in dental procedures,
Tallinn,Estonia,Dental Implant,Tallinn Dental Center,"Tallinn, Estonia",,,,,Specializing in dental procedures,
Tallinn,Estonia,Knee Replacement,Tallinn Orthopedic Hospital,"Tallinn, Estonia",,,,,Specializing in orthopedic procedures,
Tallinn,Estonia,Hip Replacement,Tallinn Orthopedic Hospital,"Tallinn, Estonia",,,,,Specializing in orthopedic procedures,
Tallinn,Estonia,Colonoscopy,Tallinn Medical Diagnostic Center,"Tallinn, Estonia",,,,,Specializing in diagnostics procedures,
Tallinn,Estonia,Gastric Bypass,Tallinn Bariatric Surgery Center,"Tallinn, Estonia",,,,,Specializing in bariatric procedures,
Tallinn,Estonia,Rhinoplasty,Tallinn Aesthetic Surgery Center,"Tallinn, Estonia",,,,,Specializing in cosmetic procedures,
Tallinn,Estonia,Breast Augmentation,Tallinn Aesthetic Surgery Center,"Tallinn, Estonia",,,,,Specializing in cosmetic procedures,
Tallinn,Estonia,LASIK,Tallinn Eye Center,"Tallinn, Estonia",,,,,Specializing in eye procedures,
Tallinn,Estonia,Hair Transplant (3000 grafts),Tallinn Hair Restoration Clinic,"Tallinn, Estonia",,,,,Specializing in hair procedures,
Tallinn,Estonia,IVF (Fertility Treatment),Tallinn Fertility Center,"Tallinn, Estonia",,,,,Specializing in fertility procedures,
Tel Aviv,Israel,Dental Veneers (Full Mouth),Tel Aviv Dental Center,"Tel Aviv, Israel",,,,,Specializing in dental procedures,
Tel Aviv,Israel,Dental Implant,Tel Aviv Dental Center,"Tel Aviv, Israel",,,,,Specializing in dental procedures,
Tel Aviv,Israel,Knee Replacement,Tel Aviv Orthopedic Hospital,"Tel Aviv, Israel",,,,,Specializing in orthopedic procedures,
Tel Aviv,Israel,Hip Replacement,Tel Aviv Orthopedic Hospital,"Tel Aviv, Israel",,,,,Specializing in orthopedic procedures,
Tel Aviv,Israel,Colonoscopy,Tel Aviv Medical Diagnostic Center,"Tel Aviv, Israel",,,,,Specializing in diagnostics procedures,
Tel Aviv,Israel,Advanced Health Screening,Tel Aviv Medical Diagnostic Center,"Tel Aviv, Israel",,,,,Specializing in diagnostics procedures,
Tel Aviv,Israel,Gastric Bypass,Tel Aviv Bariatric Surgery Center,"Tel Aviv, Israel",,,,,Specializing in bariatric procedures,
Tel Aviv,Israel,Rhinoplasty,Tel Aviv Aesthetic Surgery Center,"Tel Aviv, Israel",,,,,Specializing in cosmetic procedures,
Tel Aviv,Israel,Botox,Tel Aviv Aesthetic Surgery Center,"Tel Aviv, Israel",,,,,Specializing in cosmetic procedures,
Tel Aviv,Israel,LASIK,Tel Aviv Eye Center,"Tel Aviv, Israel",,,,,Specializing in eye procedures,
Tel Aviv,Israel,Hair Transplant (3000 grafts),Tel Aviv Hair Restoration Clinic,"Tel Aviv, Israel",,,,,Specializing in hair procedures,
Tel Aviv,Israel,IVF (Fertility Treatment),Tel Aviv Fertility Center,"Tel Aviv, Israel",,,,,Specializing in fertility procedures,
Tijuana,Mexico,Dental Veneers (Full Mouth),Tijuana Dental Center,"Tijuana, Mexico",,,,,Specializing in dental procedures,
Tijuana,Mexico,Dental Implant,Tijuana Dental Center,"Tijuana, Mexico",,,,,Specializing in dental procedures,
Tijuana,Mexico,Gender Reassignment Surgery,Tijuana Gender Affirmation Center,"Tijuana, Mexico",,,,,Specializing in gender procedures,
Tijuana,Mexico,Knee Replacement,Tijuana Orthopedic Hospital,"Tijuana, Mexico",,,,,Specializing in orthopedic procedures,
Tijuana,Mexico,Hip Replacement,Tijuana Orthopedic Hospital,"Tijuana, Mexico",,,,,Specializing in orthopedic procedures,
Tijuana,Mexico,Colonoscopy,Tijuana Medical Diagnostic Center,"Tijuana, Mexico",,,,,Specializing in diagnostics procedures,
Tijuana,Mexico,Gastric Bypass,Tijuana Bariatric Surgery Center,"Tijuana, Mexico",,,,,Specializing in bariatric procedures,
Tijuana,Mexico,Rhinoplasty,Tijuana Aesthetic Surgery Center,"Tijuana, Mexico",,,,,Specializing in cosmetic procedures,
Tijuana,Mexico,Botox,Tijuana Aesthetic Surgery Center,"Tijuana, Mexico",,,,,Specializing in cosmetic procedures,
Tijuana,Mexico,LASIK,Tijuana Eye Center,"Tijuana, Mexico",,,,,Specializing in eye procedures,
Tijuana,Mexico,Hair Transplant (3000 grafts),Tijuana Hair Restoration Clinic,"Tijuana, Mexico",,,,,Specializing in hair procedures,
Tijuana,Mexico,IVF (Fertility Treatment),Tijuana Fertility Center,"Tijuana, Mexico",,,,,Specializing in fertility procedures,
Tokyo,Japan,Gastric Bypass,Tokyo Bariatric Surgery Center,"Tokyo, Japan",,,,,Specializing in bariatric procedures,
Tokyo,Japan,Hip Replacement,Tokyo Orthopedic Hospital,"Tokyo, Japan",,,,,Specializing in orthopedic procedures,
Tokyo,Japan,Knee Replacement,Tokyo Orthopedic Hospital,"Tokyo, Japan",,,,,Specializing in orthopedic procedures,
Tokyo,Japan,LASIK,Tokyo Eye Center,"Tokyo, Japan",,,,,Specializing in eye procedures,
Tokyo,Japan,Breast Augmentation,Tokyo Aesthetic Surgery Center,"Tokyo, Japan",,,,,Specializing in cosmetic procedures,
Tokyo,Japan,Facelift,Tokyo Aesthetic Surgery Center,"Tokyo, Japan",,,,,Specializing in cosmetic procedures,
Tokyo,Japan,Biochip Implantation,Tokyo Regenerative Medicine Center,"Tokyo, Japan",,,,,Specializing in regenerative procedures,
Tokyo,Japan,Peptide Therapy,Tokyo Regenerative Medicine Center,"Tokyo, Japan",,,,,Specializing in regenerative procedures,
Tokyo,Japan,Colonoscopy,Tokyo Medical Diagnostic Center,"Tokyo, Japan",,,,,Specializing in diagnostics procedures,
Tokyo,Japan,Advanced Health Screening,Tokyo Medical Diagnostic Center,"Tokyo, Japan",,,,,Specializing in diagnostics procedures,
Tokyo,Japan,Dental Implant,Tokyo Dental Center,"Tokyo, Japan",,,,,Specializing in dental procedures,
Tokyo,Japan,Dental Veneers (Full Mouth),Tokyo Dental Center,"Tokyo, Japan",,,,,Specializing in dental procedures,
Tokyo,Japan,IVF (Fertility Treatment),Tokyo Fertility Center,"Tokyo, Japan",,,,,Specializing in fertility procedures,
Tokyo,Japan,Hair Transplant (3000 grafts),Tokyo Hair Restoration Clinic,"Tokyo, Japan",,,,,Specializing in hair procedures,
Toronto,Canada,Dental Veneers (Full Mouth),Toronto Dental Center,"Toronto, Canada",,,,,Specializing in dental procedures,
Toronto,Canada,Dental Implant,Toronto Dental Center,"Toronto, Canada",,,,,Specializing in dental procedures,
Toronto,Canada,Knee Replacement,Toronto Orthopedic Hospital,"Toronto, Canada",,,,,Specializing in orthopedic procedures,
Toronto,Canada,Hip Replacement,Toronto Orthopedic Hospital,"Toronto, Canada",,,,,Specializing in orthopedic procedures,
Toronto,Canada,Colonoscopy,Toronto Medical Diagnostic Center,"Toronto, Canada",,,,,Specializing in diagnostics procedures,
Toronto,Canada,Gastric Bypass,Toronto Bariatric Surgery Center,"Toronto, Canada",,,,,Specializing in bariatric procedures,
Toronto,Canada,Rhinoplasty,Toronto Aesthetic Surgery Center,"Toronto, Canada",,,,,Specializing in cosmetic procedures,
Toronto,Canada,Breast Augmentation,Toronto Aesthetic Surgery Center,"Toronto, Canada",,,,,Specializing in cosmetic procedures,
Toronto,Canada,LASIK,Toronto Eye Center,"Toronto, Canada",,,,,Specializing in eye procedures,
Toronto,Canada,Hair Transplant (3000 grafts),Toronto Hair Restoration Clinic,"Toronto, Canada",,,,,Specializing in hair procedures,
Toronto,Canada,IVF (Fertility Treatment),Toronto Fertility Center,"Toronto, Canada",,,,,Specializing in fertility procedures,
Vancouver,Canada,Dental Veneers (Full Mouth),Vancouver Dental Center,"Vancouver, Canada",,,,,Specializing in dental procedures,
Vancouver,Canada,Dental Implant,Vancouver Dental Center,"Vancouver, Canada",,,,,Specializing in dental procedures,
Vancouver,Canada,Knee Replacement,Vancouver Orthopedic Hospital,"Vancouver, Canada",,,,,Specializing in orthopedic procedures,
Vancouver,Canada,Hip Replacement,Vancouver Orthopedic Hospital,"Vancouver, Canada",,,,,Specializing in orthopedic procedures,
Vancouver,Canada,Colonoscopy,Vancouver Medical Diagnostic Center,"Vancouver, Canada",,,,,Specializing in diagnostics procedures,
Vancouver,Canada,Gastric Bypass,Vancouver Bariatric Surgery Center,"Vancouver, Canada",,,,,Specializing in bariatric procedures,
Vancouver,Canada,Rhinoplasty,Vancouver Aesthetic Surgery Center,"Vancouver, Canada",,,,,Specializing in cosmetic procedures,
Vancouver,Canada,Breast Augmentation,Vancouver Aesthetic Surgery Center,"Vancouver, Canada",,,,,Specializing in cosmetic procedures,
Vancouver,Canada,LASIK,Vancouver Eye Center,"Vancouver, Canada",,,,,Specializing in eye procedures,
Vancouver,Canada,Hair Transplant (3000 grafts),Vancouver Hair Restoration Clinic,"Vancouver, Canada",,,,,Specializing in hair procedures,
Vancouver,Canada,IVF (Fertility Treatment),Vancouver Fertility Center,"Vancouver, Canada",,,,,Specializing in fertility procedures,
Vienna,Austria,Dental Veneers (Full Mouth),Vienna Dental Center,"Vienna, Austria",,,,,Specializing in dental procedures,
Vienna,Austria,Dental Implant,Vienna Dental Center,"Vienna, Austria",,,,,Specializing in dental procedures,
Vienna,Austria,Knee Replacement,Vienna Orthopedic Hospital,"Vienna, Austria",,,,,Specializing in orthopedic procedures,
Vienna,Austria,Hip Replacement,Vienna Orthopedic Hospital,"Vienna, Austria",,,,,Specializing in orthopedic procedures,
Vienna,Austria,Colonoscopy,Vienna Medical Diagnostic Center,"Vienna, Austria",,,,,Specializing in diagnostics procedures,
Vienna,Austria,Gastric Bypass,Vienna Bariatric Surgery Center,"Vienna, Austria",,,,,Specializing in bariatric procedures,
Vienna,Austria,Rhinoplasty,Vienna Aesthetic Surgery Center,"Vienna, Austria",,,,,Specializing in cosmetic procedures,
Vienna,Austria,Breast Augmentation,Vienna Aesthetic Surgery Center,"Vienna, Austria",,,,,Specializing in cosmetic procedures,
Vienna,Austria,LASIK,Vienna Eye Center,"Vienna, Austria",,,,,Specializing in eye procedures,
Vienna,Austria,Hair Transplant (3000 grafts),Vienna Hair Restoration Clinic,"Vienna, Austria",,,,,Specializing in hair procedures,
Vienna,Austria,IVF (Fertility Treatment),Vienna Fertility Center,"Vienna, Austria",,,,,Specializing in fertility procedures,
Vilnius,Lithuania,Dental Veneers (Full Mouth),Vilnius Dental Center,"Vilnius, Lithuania",,,,,Specializing in dental procedures,
Vilnius,Lithuania,Dental Implant,Vilnius Dental Center,"Vilnius, Lithuania",,,,,Specializing in dental procedures,
Vilnius,Lithuania,Knee Replacement,Vilnius Orthopedic Hospital,"Vilnius, Lithuania",,,,,Specializing in orthopedic procedures,
Vilnius,Lithuania,Hip Replacement,Vilnius Orthopedic Hospital,"Vilnius, Lithuania",,,,,Specializing in orthopedic procedures,
Vilnius,Lithuania,Colonoscopy,Vilnius Medical Diagnostic Center,"Vilnius, Lithuania",,,,,Specializing in diagnostics procedures,
Vilnius,Lithuania,Gastric Bypass,Vilnius Bariatric Surgery Center,"Vilnius, Lithuania",,,,,Specializing in bariatric procedures,
Vilnius,Lithuania,Rhinoplasty,Vilnius Aesthetic Surgery Center,"Vilnius, Lithuania",,,,,Specializing in cosmetic procedures,
Vilnius,Lithuania,Breast Augmentation,Vilnius Aesthetic Surgery Center,"Vilnius, Lithuania",,,,,Specializing in cosmetic procedures,
Vilnius,Lithuania,LASIK,Vilnius Eye Center,"Vilnius, Lithuania",,,,,Specializing in eye procedures,
Vilnius,Lithuania,Hair Transplant (3000 grafts),Vilnius Hair Restoration Clinic,"Vilnius, Lithuania",,,,,Specializing in hair procedures,
Vilnius,Lithuania,IVF (Fertility Treatment),Vilnius Fertility Center,"Vilnius, Lithuania",,,,,Specializing in fertility procedures,
Warsaw,Poland,Human Growth Hormone (HGH),Warsaw Hormone Therapy Clinic,"Warsaw, Poland",,,,,Specializing in hormone procedures,
Warsaw,Poland,Testosterone Replacement Therapy (TRT),Warsaw Hormone Therapy Clinic,"Warsaw, Poland",,,,,Specializing in hormone procedures,
Warsaw,Poland,Gender Reassignment Surgery,Warsaw Gender Affirmation Center,"Warsaw, Poland",,,,,Specializing in gender procedures,
Warsaw,Poland,Gastric Bypass,Warsaw Bariatric Surgery Center,"Warsaw, Poland",,,,,Specializing in bariatric procedures,
Warsaw,Poland,Hip Replacement,Warsaw Orthopedic Hospital,"Warsaw, Poland",,,,,Specializing in orthopedic procedures,
Warsaw,Poland,Limb Lengthening Surgery,Warsaw Orthopedic Hospital,"Warsaw, Poland",,,,,Specializing in orthopedic procedures,
Warsaw,Poland,LASIK,Warsaw Eye Center,"Warsaw, Poland",,,,,Specializing in eye procedures,
Warsaw,Poland,Breast Augmentation,Warsaw Aesthetic Surgery Center,"Warsaw, Poland",,,,,Specializing in cosmetic procedures,
Warsaw,Poland,Facelift,Warsaw Aesthetic Surgery Center,"Warsaw, Poland",,,,,Specializing in cosmetic procedures,
Warsaw,Poland,Colonoscopy,Warsaw Medical Diagnostic Center,"Warsaw, Poland",,,,,Specializing in diagnostics procedures,
Warsaw,Poland,Dental Implant,Warsaw Dental Center,"Warsaw, Poland",,,,,Specializing in dental procedures,
Warsaw,Poland,Dental Veneers (Full Mouth),Warsaw Dental Center,"Warsaw, Poland",,,,,Specializing in dental procedures,
Warsaw,Poland,IVF (Fertility Treatment),Warsaw Fertility Center,"Warsaw, Poland",,,,,Specializing in fertility procedures,
Warsaw,Poland,Hair Transplant (3000 grafts),Warsaw Hair Restoration Clinic,"Warsaw, Poland",,,,,Specializing in hair procedures,
Zagreb,Croatia,Dental Veneers (Full Mouth),Zagreb Dental Center,"Zagreb, Croatia",,,,,Specializing in dental procedures,
Zagreb,Croatia,Dental Implant,Zagreb Dental Center,"Zagreb, Croatia",,,,,Specializing in dental procedures,
Zagreb,Croatia,Knee Replacement,Zagreb Orthopedic Hospital,"Zagreb, Croatia",,,,,Specializing in orthopedic procedures,
Zagreb,Croatia,Hip Replacement,Zagreb Orthopedic Hospital,"Zagreb, Croatia",,,,,Specializing in orthopedic procedures,
Zagreb,Croatia,Colonoscopy,Zagreb Medical Diagnostic Center,"Zagreb, Croatia",,,,,Specializing in diagnostics procedures,
Zagreb,Croatia,Gastric Bypass,Zagreb Bariatric Surgery Center,"Zagreb, Croatia",,,,,Specializing in bariatric procedures,
Zagreb,Croatia,Rhinoplasty,Zagreb Aesthetic Surgery Center,"Zagreb, Croatia",,,,,Specializing in cosmetic procedures,
Zagreb,Croatia,Breast Augmentation,Zagreb Aesthetic Surgery Center,"Zagreb, Croatia",,,,,Specializing in cosmetic procedures,
Zagreb,Croatia,LASIK,Zagreb Eye Center,"Zagreb, Croatia",,,,,Specializing in eye procedures,
Zagreb,Croatia,Hair Transplant (3000 grafts),Zagreb Hair Restoration Clinic,"Zagreb, Croatia",,,,,Specializing in hair procedures,
Zagreb,Croatia,IVF (Fertility Treatment),Zagreb Fertility Center,"Zagreb, Croatia",,,,,Specializing in fertility procedures,
Zurich,Switzerland,Dental Veneers (Full Mouth),Zurich Dental Center,"Zurich, Switzerland",,,,,Specializing in dental procedures,
Zurich,Switzerland,Dental Implant,Zurich Dental Center,"Zurich, Switzerland",,,,,Specializing in dental procedures,
Zurich,Switzerland,Knee Replacement,Zurich Orthopedic Hospital,"Zurich, Switzerland",,,,,Specializing in orthopedic procedures,
Zurich,Switzerland,Hip Replacement,Zurich Orthopedic Hospital,"Zurich, Switzerland",,,,,Specializing in orthopedic procedures,
Zurich,Switzerland,Colonoscopy,Zurich Medical Diagnostic Center,"Zurich, Switzerland",,,,,Specializing in diagnostics procedures,
Zurich,Switzerland,Gastric Bypass,Zurich Bariatric Surgery Center,"Zurich, Switzerland",,,,,Specializing in bariatric procedures,
Zurich,Switzerland,Rhinoplasty,Zurich Aesthetic Surgery Center,"Zurich, Switzerland",,,,,Specializing in cosmetic procedures,
Zurich,Switzerland,Breast Augmentation,Zurich Aesthetic Surgery Center,"Zurich, Switzerland",,,,,Specializing in cosmetic procedures,
Zurich,Switzerland,LASIK,Zurich Eye Center,"Zurich, Switzerland",,,,,Specializing in eye procedures,
Zurich,Switzerland,Hair Transplant (3000 grafts),Zurich Hair Restoration Clinic,"Zurich, Switzerland",,,,,Specializing in hair procedures,
Zurich,Switzerland,IVF (Fertility Treatment),Zurich Fertility Center,"Zurich, Switzerland",,,,,Specializing in fertility procedures,
